{"type":"FeatureCollection","features":[{"type":"Feature","properties":{"name":"Vättern","source":"OpenStreetMap contributors","licence":"ODbL 1.0","osmType":"relation","osmId":253599,"retrieved":"2026-08-06"},"geometry":{"type":"Polygon","coordinates":[[[14.1098639,57.8849222],[14.1108756,57.882425],[14.1185141,57.8778238],[14.1162401,57.8777402],[14.1154234,57.8762977],[14.115845,57.8757972],[14.1167746,57.8755568],[14.1180905,57.8764747],[14.1181279,57.8774605],[14.1190451,57.8775038],[14.1239125,57.8749338],[14.1346939,57.8717553],[14.147906,57.8650244],[14.1503742,57.8618401],[14.1510569,57.8597341],[14.1521056,57.8590834],[14.1516022,57.8546376],[14.1527539,57.8517572],[14.1530754,57.8481436],[14.1515203,57.8462284],[14.1516002,57.8413391],[14.1526523,57.8404745],[14.1525589,57.8372604],[14.1533799,57.836767],[14.1527798,57.8345611],[14.1548191,57.8276932],[14.156312,57.8261973],[14.1549617,57.8211767],[14.1565823,57.8176168],[14.1556182,57.816038],[14.1567636,57.8143703],[14.1562835,57.8104486],[14.1552658,57.8089364],[14.1540834,57.8084185],[14.1534715,57.8066466],[14.1530673,57.8048612],[14.1536131,57.80342],[14.1521225,57.800682],[14.1524968,57.8001782],[14.1510852,57.7990062],[14.1496301,57.7960107],[14.1492378,57.7921627],[14.1506369,57.7908467],[14.150052,57.7906747],[14.1500348,57.7895792],[14.1511454,57.7884315],[14.1589353,57.7855709],[14.1685827,57.7840781],[14.1856786,57.7824481],[14.2038216,57.7824178],[14.2109035,57.7837093],[14.2128799,57.7871447],[14.2165864,57.7879473],[14.2214802,57.7915798],[14.2259949,57.7933117],[14.240942,57.795724],[14.2416394,57.7935083],[14.2435551,57.7930966],[14.2554066,57.793216],[14.2627378,57.794174],[14.2644578,57.7947311],[14.2641458,57.7950522],[14.2649907,57.7948921],[14.2645213,57.795288],[14.2653796,57.7963372],[14.2680109,57.796706],[14.2704758,57.8001927],[14.270162,57.8011698],[14.270689,57.8029728],[14.2703382,57.8014849],[14.2710619,57.8012742],[14.2717175,57.8047599],[14.270853,57.8049472],[14.2708663,57.8035402],[14.2702861,57.8031183],[14.2707325,57.8053653],[14.2716116,57.8058131],[14.2705324,57.8105782],[14.2691748,57.8129201],[14.2690389,57.8148544],[14.2668331,57.8209976],[14.2675375,57.8223704],[14.2667757,57.8229491],[14.2683526,57.8266863],[14.2686438,57.8289935],[14.2675564,57.8417593],[14.2655792,57.8490102],[14.2652373,57.8525335],[14.2676358,57.8638923],[14.2732509,57.8723747],[14.2777152,57.8807317],[14.285277,57.8894389],[14.2911276,57.8948301],[14.2925739,57.8976625],[14.2988828,57.904534],[14.3012937,57.9087721],[14.3040274,57.9115618],[14.3107679,57.9232952],[14.3105377,57.9239398],[14.3111267,57.9235696],[14.3115637,57.9240745],[14.3108729,57.9241095],[14.3197939,57.9318474],[14.3220359,57.9360487],[14.3291243,57.9429054],[14.3362633,57.9473838],[14.3484094,57.9586802],[14.3513598,57.9621344],[14.3581737,57.9665342],[14.3673319,57.971],[14.3730975,57.9726353],[14.3763481,57.9746943],[14.3858451,57.9788389],[14.3969518,57.9829743],[14.3987833,57.9840609],[14.4009961,57.9871874],[14.4309711,57.9985745],[14.4318058,57.9989915],[14.4309821,57.9994637],[14.4323293,57.9993536],[14.4370521,58.0016193],[14.4441765,58.0061258],[14.446507,58.0083178],[14.4475187,58.0102778],[14.4508357,58.013211],[14.4513798,58.0156132],[14.4534458,58.0178232],[14.453203,58.0189743],[14.4540483,58.0202421],[14.4540386,58.021539],[14.4533196,58.0226734],[14.4538171,58.024266],[14.4551972,58.0254232],[14.4552438,58.026056],[14.4538957,58.0264414],[14.4549955,58.0286733],[14.456948,58.0291162],[14.4571263,58.0298293],[14.4591709,58.0310667],[14.4634684,58.0376745],[14.4652223,58.0391345],[14.4659722,58.0410343],[14.4735233,58.0468759],[14.4754876,58.0493727],[14.4776256,58.0506664],[14.4859302,58.0585555],[14.4873016,58.0605698],[14.5002375,58.0702263],[14.5076587,58.0747983],[14.5162301,58.0818697],[14.5171729,58.0843554],[14.5295865,58.0967079],[14.5312728,58.0997636],[14.5356995,58.1023522],[14.5378978,58.1057796],[14.5435004,58.111757],[14.5491334,58.1196259],[14.5495664,58.1213886],[14.5523064,58.1242893],[14.5555236,58.131757],[14.5582667,58.1338901],[14.5584377,58.1376306],[14.5603725,58.1387278],[14.5612195,58.1410329],[14.5643657,58.1429545],[14.5641218,58.1435925],[14.5661712,58.1442874],[14.5661923,58.1492485],[14.5680513,58.1576639],[14.5676523,58.1612944],[14.5716016,58.1693765],[14.5722617,58.1693514],[14.5737985,58.1712152],[14.5740225,58.1728458],[14.5783992,58.1787691],[14.5809844,58.1810245],[14.5807913,58.1820356],[14.5826789,58.1827224],[14.5844162,58.1844622],[14.5860094,58.1846022],[14.5871094,58.1880215],[14.5899188,58.1922088],[14.5909208,58.1925186],[14.5907941,58.193218],[14.5918348,58.1944704],[14.5954833,58.1966173],[14.5959749,58.1981168],[14.5973231,58.1982373],[14.5990703,58.2010798],[14.6003886,58.2013572],[14.6051037,58.2063497],[14.6039551,58.208325],[14.6042912,58.2109353],[14.6058373,58.2150496],[14.6075753,58.2172309],[14.607232,58.2186097],[14.6084822,58.2227864],[14.6081719,58.22343],[14.6092916,58.2248083],[14.6091825,58.2263958],[14.610286,58.228155],[14.6099566,58.2317394],[14.6114279,58.232956],[14.6127894,58.2393676],[14.6123965,58.2425776],[14.6113309,58.2443179],[14.6116631,58.2468162],[14.6107935,58.2464262],[14.6116764,58.2481601],[14.6110918,58.2490613],[14.6117943,58.2505269],[14.611223,58.2501775],[14.6110518,58.2512111],[14.6121157,58.2554162],[14.6112123,58.2558897],[14.6122542,58.2583926],[14.6130305,58.258776],[14.6130735,58.2617816],[14.6139432,58.2623523],[14.613057,58.263042],[14.6129537,58.2642179],[14.6152743,58.2671451],[14.6170863,58.2679762],[14.6178957,58.2690915],[14.6188692,58.2693044],[14.6185569,58.2687815],[14.6195341,58.2684296],[14.6209017,58.2694721],[14.6206119,58.2700376],[14.6219443,58.2713114],[14.6215542,58.2720648],[14.625634,58.2729703],[14.6251455,58.2736464],[14.6262983,58.2740239],[14.6256029,58.2740867],[14.6265303,58.2754618],[14.6282512,58.2751394],[14.6284618,58.2761858],[14.6301647,58.2760781],[14.6314367,58.2770787],[14.6310911,58.2777501],[14.6322841,58.2785852],[14.6317093,58.2788182],[14.6320333,58.2792282],[14.6345548,58.2782133],[14.6340145,58.2793052],[14.6343979,58.2799471],[14.6363127,58.2801752],[14.6351404,58.2798719],[14.6360578,58.2796473],[14.6353213,58.2795148],[14.6356474,58.2786584],[14.638329,58.2786081],[14.6379854,58.2797665],[14.6390365,58.2797323],[14.6397957,58.2806851],[14.6389166,58.2829279],[14.6381244,58.283377],[14.6405748,58.2848666],[14.6400185,58.2868343],[14.6423386,58.2868387],[14.6424088,58.2879752],[14.6434525,58.2886152],[14.6434652,58.2895962],[14.6414825,58.2931414],[14.6371887,58.2950918],[14.6339142,58.2975304],[14.6294688,58.3028707],[14.6298634,58.3042932],[14.6268025,58.3075593],[14.6266222,58.3135354],[14.625957,58.3144652],[14.6281457,58.3191141],[14.6306884,58.3213848],[14.6356808,58.3297199],[14.6373772,58.330635],[14.6386569,58.3325008],[14.6446045,58.3341395],[14.6492236,58.3371831],[14.6535942,58.3467939],[14.6547554,58.3553406],[14.6544742,58.3580957],[14.6551679,58.3592082],[14.6553067,58.3618741],[14.6580623,58.3640952],[14.6604159,58.3682016],[14.661725,58.372702],[14.6612656,58.3734355],[14.6623063,58.3755114],[14.6743455,58.3799177],[14.6754545,58.3811606],[14.678152,58.3811458],[14.679873,58.3823889],[14.6806043,58.3818547],[14.6803235,58.3822302],[14.6820949,58.3828486],[14.6813816,58.3833525],[14.6817697,58.3836488],[14.6849402,58.3838138],[14.6897842,58.3873572],[14.6959676,58.3900801],[14.6975637,58.3926338],[14.6970747,58.3936834],[14.6952246,58.3946069],[14.6972236,58.3954877],[14.7031427,58.3938314],[14.7067588,58.3944905],[14.7131473,58.3968813],[14.7139603,58.3976949],[14.7138706,58.3988008],[14.7158421,58.4003974],[14.7152424,58.4024059],[14.7199899,58.4032744],[14.7249412,58.4055369],[14.724496,58.4061467],[14.7251022,58.407965],[14.7281936,58.408503],[14.732208,58.4111873],[14.7332154,58.4128467],[14.7367722,58.4132971],[14.7425798,58.4158087],[14.7497153,58.4166476],[14.7522963,58.4180046],[14.7553509,58.4213814],[14.7566368,58.4246535],[14.7561441,58.4276119],[14.757901,58.4286463],[14.7599563,58.4287965],[14.7642281,58.4274255],[14.7700937,58.4289862],[14.7719041,58.4304629],[14.7734881,58.4306665],[14.7753944,58.4331961],[14.7764037,58.4366015],[14.7753075,58.4389338],[14.7753333,58.4425296],[14.774356,58.4435679],[14.7751067,58.4434811],[14.7743408,58.4452183],[14.7747188,58.4461003],[14.7734018,58.4476893],[14.7735984,58.4493475],[14.7723576,58.4522021],[14.7730738,58.457127],[14.7744573,58.4582617],[14.7778045,58.4591746],[14.783065,58.4552398],[14.7837738,58.4552567],[14.7821359,58.4547223],[14.7832843,58.4548535],[14.7825791,58.4543591],[14.7835702,58.4546195],[14.7835392,58.4550167],[14.7836623,58.4550531],[14.7841599,58.4544491],[14.7896291,58.4546387],[14.7941063,58.4561554],[14.7976527,58.4585044],[14.7983794,58.4605162],[14.7969114,58.4630973],[14.7977653,58.465223],[14.7952595,58.4659412],[14.795948,58.4667646],[14.7954974,58.4677277],[14.7978407,58.4679678],[14.7995099,58.4705576],[14.8024387,58.4713682],[14.8068599,58.4704221],[14.8125898,58.4708421],[14.8161979,58.4722211],[14.8155606,58.4732763],[14.8183316,58.4721145],[14.8221892,58.47245],[14.8251003,58.4735718],[14.8260435,58.4752824],[14.8254505,58.4765592],[14.8287358,58.4771872],[14.830886,58.4743015],[14.840517,58.4733722],[14.8427704,58.4720933],[14.8465072,58.4713468],[14.848618,58.4703892],[14.8492812,58.4672667],[14.8485308,58.4658476],[14.849386,58.4644407],[14.8540067,58.4623728],[14.8531491,58.4614861],[14.8549282,58.4601667],[14.8525772,58.4595871],[14.8499159,58.4575558],[14.8504368,58.4556735],[14.8485711,58.4535477],[14.8492706,58.453233],[14.8491392,58.4519385],[14.8572476,58.4486276],[14.8558016,58.4474353],[14.8563854,58.446625],[14.8602357,58.4446131],[14.8652355,58.4430919],[14.8685255,58.4436437],[14.8700664,58.4427217],[14.8769029,58.444187],[14.8797989,58.4455871],[14.8799081,58.4469455],[14.877272,58.4487795],[14.8779811,58.4490277],[14.8769085,58.4498002],[14.8750766,58.4498198],[14.8769863,58.4498823],[14.881467,58.447156],[14.8837641,58.4476267],[14.8895105,58.450495],[14.8906545,58.4526386],[14.8960672,58.4559174],[14.8960012,58.4572068],[14.8978048,58.4579759],[14.8972335,58.4583657],[14.8993385,58.458805],[14.8998506,58.4595154],[14.8951129,58.4609281],[14.8932552,58.4601147],[14.8936411,58.459437],[14.8945572,58.4595352],[14.893973,58.4591324],[14.8899946,58.4591352],[14.8886213,58.460774],[14.8906598,58.4619862],[14.8914538,58.4634116],[14.8951498,58.4627664],[14.9010024,58.4656225],[14.904952,58.465275],[14.9068618,58.4638945],[14.9064755,58.4620651],[14.913364,58.4606246],[14.9163656,58.4607746],[14.9179676,58.4612352],[14.9187818,58.4624155],[14.9221275,58.4619234],[14.9249913,58.4623718],[14.9282876,58.464334],[14.937108,58.4666727],[14.9393611,58.4693876],[14.9379117,58.471238],[14.9380832,58.4729466],[14.9427158,58.4756048],[14.9436529,58.4773458],[14.9435027,58.4795671],[14.9418603,58.4833366],[14.9392596,58.4840797],[14.93218,58.4833678],[14.9318608,58.4839105],[14.9326521,58.4848596],[14.9388018,58.486939],[14.9403339,58.4880337],[14.9412588,58.4901913],[14.9464318,58.4907571],[14.9494883,58.4921557],[14.9513577,58.4915501],[14.9546917,58.4919226],[14.9573422,58.4934851],[14.9590197,58.496845],[14.9580395,58.4983771],[14.9585509,58.4985124],[14.9582172,58.4994073],[14.9557466,58.5019948],[14.9552203,58.5058397],[14.9560479,58.5087455],[14.9557108,58.5110661],[14.9585234,58.5134983],[14.9601575,58.5134845],[14.9632835,58.5104689],[14.9638875,58.5089806],[14.9655789,58.5082984],[14.9709327,58.5090328],[14.971495,58.5101533],[14.976407,58.5103658],[14.9804557,58.5125133],[14.9837103,58.5121978],[14.9844533,58.5115343],[14.9843455,58.510302],[14.9870057,58.5093272],[14.9931243,58.5112861],[14.9980233,58.5095427],[15.0007232,58.5104111],[15.0008873,58.5128311],[15.0023706,58.5133215],[15.0082731,58.5110491],[15.0111859,58.5109144],[15.0122213,58.5115627],[15.0124793,58.5120497],[15.0108024,58.5126039],[15.0108179,58.5133377],[15.0126703,58.5131934],[15.0139208,58.5143499],[15.0073043,58.5180839],[15.0067595,58.5192089],[15.0046685,58.5207502],[15.0041965,58.5232549],[14.9991295,58.5315756],[14.9951575,58.529219],[14.9917589,58.5285208],[14.9889061,58.5298732],[14.9827521,58.5297762],[14.982768,58.5293251],[14.9812135,58.5289948],[14.9814801,58.527983],[14.9806396,58.5271785],[14.9806622,58.5251514],[14.979644,58.523455],[14.9789847,58.5237427],[14.9783244,58.5258314],[14.9738842,58.5278374],[14.9762859,58.528381],[14.9764592,58.5297868],[14.9750767,58.5305889],[14.9767152,58.5312251],[14.9773311,58.5325297],[14.9810293,58.5329638],[14.9823131,58.5318577],[14.9833393,58.5319106],[14.985198,58.5327388],[14.9866963,58.5342933],[14.9865306,58.5365048],[14.9849866,58.5373809],[14.9851846,58.53848],[14.9841347,58.5398542],[14.9792512,58.5400088],[14.977132,58.5409321],[14.9767735,58.5416571],[14.9773734,58.5420978],[14.9832262,58.5426301],[14.9859272,58.5444209],[14.9867378,58.5464989],[14.9884809,58.5472701],[14.9908501,58.5466795],[14.9940783,58.5439735],[14.9988711,58.5441813],[15.0028153,58.5460182],[15.0046765,58.549288],[15.0045936,58.5529259],[15.003122,58.5559694],[14.9989549,58.5598672],[14.9976067,58.56051],[14.9932561,58.5608141],[14.994325,58.5603319],[14.9938147,58.5603202],[14.99039,58.5613533],[14.9841142,58.5648328],[14.9795578,58.5664197],[14.9773753,58.5664156],[14.9717249,58.5680604],[14.966503,58.5681973],[14.9630078,58.5677157],[14.9630416,58.5671969],[14.9621796,58.5669424],[14.9625095,58.5660634],[14.9580841,58.5656674],[14.9548858,58.5628489],[14.9543336,58.5614842],[14.9492669,58.5592747],[14.9449837,58.556092],[14.9413031,58.5560877],[14.9384573,58.5575234],[14.9355025,58.5576913],[14.9332268,58.5588157],[14.9311409,58.5585874],[14.9284956,58.5597773],[14.9294655,58.5602429],[14.9305631,58.5626518],[14.9292695,58.5641514],[14.917217,58.5691466],[14.9131576,58.5687279],[14.9140394,58.5720696],[14.9114344,58.574787],[14.908027,58.5763481],[14.8989812,58.5776464],[14.8989924,58.5785811],[14.8975401,58.5788024],[14.8980362,58.5792512],[14.8965965,58.5800443],[14.8894067,58.5814313],[14.8857013,58.5798312],[14.8858493,58.5785698],[14.8846443,58.5786144],[14.8841304,58.5775631],[14.883693,58.5781668],[14.884172,58.5787903],[14.883501,58.5791251],[14.8799594,58.5789161],[14.8795463,58.5776086],[14.8778023,58.5771128],[14.8786195,58.575869],[14.877987,58.5753849],[14.8740276,58.577659],[14.8709162,58.5781288],[14.8698648,58.5780281],[14.8682903,58.5760157],[14.8674616,58.5760145],[14.8672525,58.5769408],[14.8683891,58.5776726],[14.8678314,58.57942],[14.8688168,58.5811405],[14.8698555,58.581581],[14.8680443,58.5838537],[14.8642924,58.5841743],[14.8639796,58.5883113],[14.8706271,58.5940494],[14.8738609,58.5941028],[14.8744114,58.593424],[14.8733754,58.5921663],[14.8750521,58.5866691],[14.8741813,58.5866164],[14.8736502,58.5851433],[14.8757093,58.5833928],[14.8784448,58.5831059],[14.878847,58.584684],[14.8771096,58.5852333],[14.8812524,58.5871946],[14.8812958,58.5881426],[14.8832786,58.5902786],[14.8821461,58.5935785],[14.8825256,58.5954073],[14.8785035,58.5960223],[14.8777412,58.5972583],[14.8785448,58.5978881],[14.8832848,58.6007837],[14.8844892,58.602398],[14.8872808,58.6037236],[14.8943847,58.6045799],[14.904081,58.6089265],[14.9046522,58.6089135],[14.9040399,58.6080456],[14.9088123,58.6077871],[14.910681,58.608303],[14.9123487,58.6096356],[14.9126335,58.6102063],[14.9113241,58.6129031],[14.9099698,58.6136529],[14.908495,58.6134553],[14.908411,58.6126437],[14.9068235,58.6133971],[14.9092016,58.6155197],[14.9087706,58.6166519],[14.9102078,58.617591],[14.9103649,58.6187279],[14.9099696,58.6196677],[14.9079249,58.6209078],[14.9078349,58.6221103],[14.9107148,58.6217532],[14.9177198,58.6179458],[14.9213889,58.6172825],[14.9228055,58.6157755],[14.9269438,58.6151733],[14.9302697,58.6165757],[14.9297976,58.6174417],[14.9279594,58.6183339],[14.9291003,58.6180563],[14.931198,58.6187465],[14.9281681,58.6240869],[14.9291042,58.6238124],[14.9297869,58.6254024],[14.9310958,58.625313],[14.9299586,58.6262067],[14.9282312,58.6264748],[14.9294329,58.626849],[14.9314177,58.6263966],[14.9319112,58.6268937],[14.9313727,58.6277183],[14.9328554,58.6268658],[14.9344212,58.6276321],[14.9378228,58.6264525],[14.9399619,58.6268457],[14.9390137,58.6280052],[14.9404253,58.6285219],[14.9409449,58.6298204],[14.9378014,58.6311105],[14.9374688,58.6318812],[14.939262,58.6325697],[14.9396459,58.6334221],[14.9386041,58.6355474],[14.9379053,58.640538],[14.935156,58.6417055],[14.9330426,58.64098],[14.9328438,58.6401523],[14.9296051,58.6397113],[14.9262461,58.6406015],[14.9265575,58.6417201],[14.9284019,58.6432147],[14.9323425,58.6414216],[14.9350119,58.6419211],[14.9359527,58.6427304],[14.9354195,58.6432108],[14.9357843,58.6456896],[14.9332737,58.6533926],[14.9339571,58.6556174],[14.9280897,58.6633088],[14.9286389,58.66558],[14.9278182,58.66688],[14.9248624,58.6674797],[14.923168,58.6662955],[14.921217,58.6660865],[14.9193438,58.6666073],[14.9191761,58.667449],[14.9205851,58.6689217],[14.9223744,58.669384],[14.9250942,58.6687584],[14.9277753,58.6701575],[14.9324253,58.6698175],[14.9329787,58.6703054],[14.9312192,58.6712537],[14.9312582,58.6732074],[14.9350303,58.6732207],[14.9397213,58.6754692],[14.9396295,58.6769973],[14.9406629,58.6789529],[14.9396928,58.678966],[14.9404887,58.6797195],[14.9386425,58.6801058],[14.9364865,58.6778104],[14.9370109,58.6775839],[14.9340423,58.6749389],[14.9323931,58.674121],[14.9303589,58.6747294],[14.9276985,58.6728688],[14.9273256,58.6733214],[14.9279098,58.6748808],[14.9240039,58.6769557],[14.9231252,58.678736],[14.9238435,58.679014],[14.9231372,58.6790829],[14.9229115,58.679946],[14.9247492,58.6795061],[14.9243059,58.6802476],[14.926337,58.6808761],[14.9265304,58.681714],[14.9250877,58.6828284],[14.9267964,58.6830337],[14.9263853,58.6839595],[14.9269272,58.68447],[14.9252005,58.6862719],[14.9257244,58.6873819],[14.9229834,58.6888825],[14.9235724,58.6896103],[14.9230002,58.6907119],[14.9236979,58.6921945],[14.9273355,58.6929419],[14.9309698,58.6950535],[14.9323267,58.6949476],[14.9335126,58.6936478],[14.9321541,58.6932315],[14.9320496,58.6923446],[14.9331759,58.6919645],[14.9321532,58.6914425],[14.931874,58.6899919],[14.933688,58.6891597],[14.9378018,58.6891343],[14.9371614,58.6927864],[14.9360038,58.6947616],[14.9369933,58.6951632],[14.9369735,58.6962371],[14.9363408,58.6975856],[14.9345823,58.6978094],[14.934246,58.6984326],[14.9358253,58.6990298],[14.9368831,58.6981056],[14.9384222,58.7005869],[14.9407364,58.7013003],[14.9416389,58.7039598],[14.9433982,58.7047253],[14.9430639,58.7057825],[14.9438639,58.7054849],[14.944984,58.7061766],[14.9437505,58.7063544],[14.9483571,58.7069404],[14.9511602,58.7088711],[14.9513944,58.7102242],[14.9531651,58.711589],[14.9564856,58.7117673],[14.9561906,58.7121503],[14.9571133,58.7130307],[14.9566466,58.7138427],[14.9515531,58.7134318],[14.9503702,58.7147857],[14.9519152,58.7165686],[14.9558339,58.7156423],[14.9563757,58.7148456],[14.9574351,58.7150197],[14.9579287,58.7176034],[14.9567753,58.7187635],[14.9570489,58.719471],[14.955166,58.7200866],[14.9551284,58.7210837],[14.96126,58.7216157],[14.9606806,58.718641],[14.9623007,58.7174934],[14.9649722,58.7171507],[14.9669999,58.7180477],[14.9697036,58.7179084],[14.9724877,58.7194877],[14.9722785,58.7204654],[14.9731891,58.7206861],[14.9725186,58.7206993],[14.9731381,58.7226229],[14.9719231,58.7230619],[14.972717,58.7231325],[14.9731194,58.7253744],[14.9778079,58.7273322],[14.9824964,58.7282455],[14.9820685,58.7308649],[14.9835008,58.7323671],[14.9829859,58.7324604],[14.9835384,58.733098],[14.9828303,58.7337216],[14.9841445,58.7342673],[14.981876,58.7340555],[14.9827316,58.7342615],[14.9827692,58.7349423],[14.9807978,58.7360587],[14.9785769,58.7349451],[14.977777,58.733201],[14.9761999,58.7319731],[14.9742848,58.7312269],[14.9742526,58.7302969],[14.9692476,58.7291831],[14.9685502,58.7282307],[14.9638456,58.72573],[14.9624026,58.726585],[14.9591947,58.7270082],[14.9580252,58.7282614],[14.9614155,58.7293696],[14.9623382,58.7307675],[14.9572635,58.7300491],[14.9569252,58.7322807],[14.958701,58.7340509],[14.9635062,58.736825],[14.9650287,58.738968],[14.9691142,58.7405272],[14.9721295,58.7432236],[14.9763358,58.7449028],[14.9785305,58.7467566],[14.9784066,58.7476907],[14.9755635,58.7476056],[14.9755125,58.7487731],[14.9783173,58.7489662],[14.9800408,58.749465],[14.979683,58.749893],[14.9801959,58.7500537],[14.9807599,58.7496165],[14.9847262,58.749916],[14.9863036,58.7507969],[14.9847774,58.7524477],[14.9825287,58.7517625],[14.9778755,58.7523238],[14.9754116,58.7515883],[14.9703592,58.7527244],[14.9686591,58.7538809],[14.9686374,58.7559902],[14.9673279,58.7570076],[14.967565,58.7582784],[14.966148,58.7601617],[14.9676975,58.762254],[14.9666383,58.7630614],[14.9665147,58.7646617],[14.96751,58.7662046],[14.968299,58.7664036],[14.9680306,58.7673248],[14.9694115,58.768511],[14.9708459,58.7687032],[14.9706585,58.7705342],[14.9717917,58.7713937],[14.9732683,58.7714147],[14.9769574,58.7748045],[14.9753638,58.7772481],[14.9734761,58.7748949],[14.9732074,58.7766474],[14.9718453,58.777782],[14.9728731,58.7784223],[14.9714167,58.7781042],[14.9721988,58.7794609],[14.9702516,58.7791742],[14.9704345,58.7799531],[14.9687826,58.7809349],[14.9701607,58.7811963],[14.9697787,58.7824133],[14.9668218,58.7831731],[14.9634731,58.7826617],[14.9547355,58.7789198],[14.9546964,58.7759569],[14.9557081,58.7756296],[14.9556984,58.7747673],[14.9535596,58.7740178],[14.951232,58.771408],[14.9525737,58.7698344],[14.9530693,58.7667353],[14.9490777,58.7672966],[14.9471577,58.7666852],[14.9448344,58.7673539],[14.9441955,58.767108],[14.9449186,58.7665695],[14.9442797,58.7657676],[14.9451992,58.7645954],[14.9416813,58.7632105],[14.9374637,58.7650276],[14.9383714,58.7654001],[14.9380811,58.7657061],[14.9362116,58.7657973],[14.9360153,58.7669225],[14.9372754,58.7679642],[14.9371375,58.7691774],[14.9360942,58.7692147],[14.935002,58.7680982],[14.9346039,58.7665573],[14.9334903,58.7663453],[14.9328498,58.7665409],[14.9325982,58.7675842],[14.9344714,58.7682459],[14.9321594,58.7679814],[14.9313413,58.7693621],[14.9307163,58.7691463],[14.9310049,58.769939],[14.9315752,58.770058],[14.9314936,58.7694333],[14.933221,58.7702282],[14.9329469,58.7709043],[14.9338105,58.7712417],[14.9316752,58.7710019],[14.9335887,58.7721852],[14.9325113,58.7720805],[14.9325778,58.7726812],[14.9350524,58.7741683],[14.9357181,58.7749241],[14.9353793,58.7753852],[14.9333642,58.7755643],[14.932168,58.774151],[14.92905,58.772381],[14.929666,58.7721331],[14.925543,58.771368],[14.925891,58.7720941],[14.9280486,58.772498],[14.925432,58.772842],[14.9255825,58.7737462],[14.924416,58.773735],[14.9250051,58.7741686],[14.9235567,58.7737758],[14.9241902,58.7742125],[14.921813,58.7745292],[14.9201506,58.7756408],[14.9237989,58.7776824],[14.9198171,58.7759365],[14.9184667,58.7774113],[14.9193786,58.7785166],[14.9209301,58.7788146],[14.9224632,58.7814908],[14.9253862,58.7821921],[14.9251833,58.7813214],[14.9272434,58.7810525],[14.9284343,58.7825444],[14.9296799,58.7828213],[14.9269612,58.7834786],[14.9293658,58.7846194],[14.9285146,58.7851257],[14.9249187,58.7839997],[14.9232335,58.7843713],[14.9227663,58.7855587],[14.9231557,58.7888752],[14.9239545,58.7903876],[14.9231874,58.7905708],[14.9231277,58.7911882],[14.9251606,58.7948153],[14.9245212,58.7949342],[14.9273118,58.7976606],[14.9289393,58.7982686],[14.928255,58.7985437],[14.92821,58.7998943],[14.9314982,58.8033164],[14.9285379,58.8028157],[14.9279766,58.8054384],[14.9295051,58.8058133],[14.9310954,58.8046669],[14.9326365,58.8045905],[14.9343379,58.8053302],[14.9353223,58.8068676],[14.934591,58.8074992],[14.9360535,58.809294],[14.9356099,58.8102302],[14.9363495,58.8114366],[14.9387246,58.8127052],[14.9394781,58.8142557],[14.9408722,58.8150823],[14.9408066,58.8158378],[14.9486708,58.8164966],[14.9515668,58.8176388],[14.951377,58.8182088],[14.9534038,58.8195314],[14.9536365,58.820595],[14.9560629,58.822822],[14.95706,58.8229549],[14.9579531,58.8220768],[14.9592238,58.8221626],[14.9622087,58.820822],[14.9638748,58.8178638],[14.9636931,58.8162127],[14.9652366,58.8149113],[14.9655524,58.8132024],[14.9672422,58.8128802],[14.969251,58.8134459],[14.9691588,58.8149777],[14.9665994,58.8159417],[14.9668321,58.8177698],[14.9654361,58.818634],[14.9662338,58.8202294],[14.9636412,58.8222569],[14.9649043,58.8239521],[14.9652699,58.8260461],[14.9636683,58.8275101],[14.9639248,58.8283703],[14.9607163,58.8294031],[14.9592538,58.8307991],[14.9580904,58.8345883],[14.9610789,58.8372483],[14.9647836,58.8381485],[14.9703825,58.8371536],[14.9703385,58.8359772],[14.9728394,58.8361937],[14.9734797,58.8368153],[14.9728517,58.8391092],[14.970236,58.8415149],[14.9713148,58.8427164],[14.9725158,58.8415683],[14.9738786,58.8416016],[14.9748425,58.8430973],[14.9772139,58.8430763],[14.9772953,58.8436896],[14.9752081,58.8446262],[14.9750935,58.8458035],[14.9785535,58.8455339],[14.978183,58.8457051],[14.983285,58.848216],[14.9843955,58.8481104],[14.9850143,58.847206],[14.9849819,58.846389],[14.985632,58.8460281],[14.9849423,58.8453003],[14.9862194,58.8442972],[14.9860359,58.8437779],[14.9834819,58.8432691],[14.9823169,58.8436809],[14.9814965,58.8428321],[14.9798953,58.842632],[14.9816708,58.8417081],[14.9819532,58.8403722],[14.9839398,58.8403985],[14.9844714,58.8391008],[14.9874399,58.8397194],[14.9872466,58.8390613],[14.9850055,58.8386663],[14.9830484,58.836887],[14.9835366,58.8352572],[14.9821427,58.8337308],[14.9822775,58.8331542],[14.9887715,58.8343574],[14.9888402,58.8336387],[14.9906284,58.8331766],[14.9912135,58.8322972],[14.9904682,58.8302211],[14.9928872,58.8287083],[14.9975193,58.8325158],[14.9973921,58.831847],[14.999874,58.8306206],[14.9996,58.8300355],[15.0003828,58.8286248],[15.0050477,58.8285921],[15.0047643,58.8276771],[15.0031671,58.8280104],[15.0007246,58.8262135],[15.0008864,58.8239398],[14.9980446,58.8224649],[14.9949365,58.8194199],[15.0014982,58.8221814],[15.0036672,58.8215262],[15.0052536,58.821841],[15.0049766,58.823139],[15.0067033,58.8237498],[15.0074906,58.8255048],[15.0128945,58.823997],[15.0124337,58.8243683],[15.0134918,58.824957],[15.0129135,58.8258436],[15.013524,58.826652],[15.0183567,58.8284149],[15.0181164,58.8296354],[15.0224681,58.8338901],[15.0231498,58.8353171],[15.0227608,58.835983],[15.0241409,58.8367706],[15.0249202,58.8386921],[15.0264668,58.8394976],[15.026304,58.8403716],[15.0238975,58.8407123],[15.0206367,58.8382814],[15.019436,58.8381077],[15.0186119,58.8370336],[15.0188763,58.8355656],[15.0175206,58.8335682],[15.0163226,58.8328212],[15.0149795,58.8304304],[15.0126597,58.8292824],[15.0110218,58.8291077],[15.0096581,58.8320155],[15.0082717,58.8325963],[15.0068511,58.8322328],[15.0009125,58.8332074],[14.9982089,58.837635],[14.9992828,58.8381729],[14.9977294,58.8387538],[14.997418,58.8422507],[14.9923046,58.8421109],[14.9911471,58.8442678],[14.99106,58.8452066],[14.9929157,58.8476074],[14.9941105,58.8478945],[14.9957237,58.8504517],[14.9954879,58.8511429],[14.99606,58.8512807],[14.9927656,58.8533228],[14.9951857,58.8529004],[14.9977794,58.8536651],[14.9971388,58.8543064],[14.9926823,58.8536226],[14.9921564,58.8545392],[14.9912791,58.8543122],[14.9912442,58.8554913],[14.9897288,58.8566658],[14.9893837,58.8582468],[14.9907886,58.8599339],[14.9933841,58.8597013],[14.9945502,58.8608295],[14.9940662,58.8616736],[14.9948312,58.8627193],[14.9933766,58.8632006],[14.9902993,58.8631493],[14.9877139,58.8620609],[14.9885874,58.8597031],[14.9879017,58.858129],[14.9887708,58.8556287],[14.9875567,58.854896],[14.985356,58.8551242],[14.9852202,58.8543773],[14.9846263,58.8543253],[14.9839669,58.8513142],[14.9813135,58.8525556],[14.9798833,58.8524743],[14.9794929,58.8555738],[14.9783743,58.8560964],[14.9774572,58.8555272],[14.9772639,58.8536625],[14.9722139,58.8549411],[14.9688692,58.8538946],[14.9680758,58.8521632],[14.9667653,58.8516649],[14.960248,58.8511698],[14.960175,58.8504689],[14.9615102,58.8497932],[14.9611535,58.8484665],[14.9644816,58.8467851],[14.9634511,58.845653],[14.9660984,58.8421361],[14.9620456,58.8404901],[14.9560487,58.8413794],[14.9522808,58.8441871],[14.9447836,58.8465817],[14.9426207,58.8481377],[14.9418531,58.8501531],[14.9420881,58.8513124],[14.9414765,58.8517015],[14.9382096,58.8505919],[14.9362109,58.848624],[14.9362688,58.8467533],[14.937464,58.8456211],[14.9373479,58.8446497],[14.9320462,58.8424667],[14.9302027,58.840967],[14.9255531,58.8358742],[14.9214511,58.8296733],[14.921228,58.8285133],[14.9226898,58.8230961],[14.9195625,58.8185861],[14.9201661,58.814106],[14.9227776,58.8131248],[14.9226452,58.8125007],[14.923165,58.8124243],[14.9219897,58.8111618],[14.9204989,58.8109567],[14.9195231,58.8130235],[14.9188477,58.8129069],[14.9173463,58.814471],[14.9148684,58.812468],[14.9151602,58.8114404],[14.9143953,58.8106762],[14.9136903,58.8108205],[14.913206,58.8101347],[14.9129198,58.8111431],[14.9125537,58.8103408],[14.9108869,58.811211],[14.9099688,58.8110158],[14.909504,58.8104789],[14.9104814,58.8097008],[14.9068438,58.807262],[14.9048697,58.8083956],[14.9038692,58.8079505],[14.9040376,58.8073465],[14.9014713,58.807124],[14.8990182,58.8078733],[14.8968023,58.8055087],[14.8958136,58.8052593],[14.895572,58.8038477],[14.8939247,58.8034509],[14.8901643,58.8044014],[14.889213,58.8039657],[14.8898529,58.8024652],[14.8891197,58.8021522],[14.8872789,58.8027879],[14.8865821,58.8022051],[14.8858185,58.8041441],[14.8844099,58.8039089],[14.8835062,58.8035913],[14.8839078,58.802563],[14.8833004,58.8017299],[14.8824111,58.8023863],[14.8801441,58.8005144],[14.8787983,58.800839],[14.8777898,58.8018959],[14.8778796,58.8036151],[14.8770712,58.804332],[14.8783981,58.8059174],[14.8782423,58.8065035],[14.8764755,58.8070148],[14.8767353,58.8098371],[14.8785803,58.8116562],[14.8814239,58.8119277],[14.8825205,58.8108361],[14.884732,58.8110871],[14.8867088,58.8128003],[14.8904995,58.8140681],[14.8904938,58.8145195],[14.8808808,58.8135539],[14.8791854,58.8128922],[14.8773544,58.8141951],[14.8698872,58.8130456],[14.8692059,58.8118565],[14.8696893,58.8103067],[14.8721135,58.8081839],[14.8709271,58.8076607],[14.8697034,58.8057383],[14.8589972,58.8042379],[14.8582031,58.8045585],[14.8575613,58.8074454],[14.8544609,58.8075351],[14.8545604,58.8057793],[14.8508997,58.8034021],[14.8521097,58.8025597],[14.8523208,58.8009748],[14.8547971,58.8001818],[14.8539995,58.7987592],[14.855943,58.7981701],[14.8557037,58.7966298],[14.8532153,58.7962948],[14.852713,58.7954962],[14.8463405,58.7960856],[14.8467951,58.7951522],[14.8495838,58.7952688],[14.8515897,58.7947904],[14.8516525,58.7942003],[14.8495087,58.7928668],[14.8490235,58.7930009],[14.8493355,58.7938061],[14.8469221,58.7935997],[14.8468077,58.792129],[14.8449187,58.7912723],[14.8447989,58.79069],[14.8438679,58.790662],[14.8436428,58.79173],[14.8426439,58.7916701],[14.8416173,58.789824],[14.8406924,58.7894867],[14.841622,58.7892409],[14.8410504,58.7884092],[14.8420598,58.7883121],[14.8383946,58.7874667],[14.8385851,58.7865691],[14.8364489,58.7846542],[14.835017,58.7848816],[14.8351729,58.7855758],[14.8343473,58.7859528],[14.8309066,58.784641],[14.8303375,58.7838178],[14.8285608,58.7835263],[14.8280476,58.7840545],[14.8283139,58.7850551],[14.8272978,58.7853513],[14.8263878,58.7846289],[14.8251731,58.7859558],[14.8219053,58.7857672],[14.8202815,58.7848858],[14.8158488,58.7844746],[14.810872,58.7825057],[14.8103971,58.7806221],[14.8121213,58.7788713],[14.8114318,58.7771873],[14.8128292,58.7764128],[14.811354,58.7759943],[14.8117678,58.7750023],[14.8109045,58.7746723],[14.8115492,58.7729051],[14.810408,58.7716013],[14.8111232,58.7711174],[14.8111905,58.7692885],[14.8080506,58.7688296],[14.8086875,58.7700567],[14.8083675,58.7710487],[14.8045223,58.770953],[14.8032169,58.7674008],[14.8020862,58.7663532],[14.8030249,58.7655577],[14.801063,58.7629682],[14.8014084,58.761461],[14.8046277,58.7597918],[14.808572,58.7626381],[14.80796,58.7630693],[14.8078637,58.7644411],[14.8090916,58.7652908],[14.8110893,58.7643507],[14.8134647,58.7643503],[14.8131292,58.7626417],[14.8110594,58.7608172],[14.8091493,58.7601769],[14.8090691,58.7594716],[14.8116396,58.7573473],[14.8162892,58.7569446],[14.8179483,58.7575179],[14.8182369,58.7582425],[14.8164065,58.7626144],[14.8155695,58.7630094],[14.8169412,58.7639675],[14.8163258,58.7653522],[14.8172198,58.7667147],[14.8187333,58.7656669],[14.8192987,58.7643907],[14.8211182,58.7641255],[14.8221146,58.7646768],[14.8233451,58.764124],[14.8238604,58.7636621],[14.8236607,58.7626153],[14.8230454,58.7631507],[14.8204748,58.7627172],[14.8204531,58.7620563],[14.8216386,58.7619157],[14.8221829,58.7604317],[14.8205184,58.7603667],[14.8215662,58.7581118],[14.8209947,58.7564178],[14.8224029,58.7546226],[14.821064,58.7525545],[14.8227955,58.7528685],[14.8230029,58.7523677],[14.8212586,58.7508792],[14.8220418,58.7500276],[14.8210294,58.747295],[14.8223798,58.7475725],[14.8231877,58.7469819],[14.8245839,58.7478395],[14.8265915,58.7477727],[14.82688,58.746583],[14.8247762,58.7445367],[14.8231078,58.7443533],[14.8214335,58.7432569],[14.821045,58.7434123],[14.8215143,58.7440238],[14.8226806,58.7447308],[14.8220163,58.7450552],[14.8206635,58.7443146],[14.8172419,58.7446889],[14.81639,58.7437008],[14.8132466,58.7428555],[14.8129191,58.742261],[14.8116762,58.7422563],[14.8117686,58.7428435],[14.8110757,58.7429454],[14.8101788,58.7425873],[14.8079807,58.7448151],[14.8078672,58.7476922],[14.8088356,58.7482595],[14.8089213,58.7495017],[14.8076,58.7501824],[14.8047357,58.7502017],[14.8034871,58.7517467],[14.8030493,58.7511929],[14.8025102,58.7523101],[14.8048805,58.7567376],[14.8034065,58.7569835],[14.8024542,58.755972],[14.8024598,58.7546166],[14.8006332,58.7523367],[14.8016685,58.749693],[14.8047735,58.7473617],[14.803018,58.7433757],[14.8060184,58.740345],[14.804159,58.7383735],[14.8058777,58.7378439],[14.8055866,58.7365189],[14.8012012,58.7354106],[14.8007021,58.7341918],[14.7970575,58.731177],[14.7950748,58.7277019],[14.7922424,58.7273507],[14.7913627,58.7262371],[14.7915029,58.7254173],[14.789351,58.7258213],[14.7897861,58.725017],[14.7893017,58.725034],[14.7893869,58.7243383],[14.7902243,58.7239206],[14.7896133,58.7232285],[14.7869515,58.7231965],[14.7859454,58.721585],[14.7838299,58.7207726],[14.7838457,58.7199175],[14.7822099,58.7202539],[14.7805464,58.7195757],[14.7804308,58.7184543],[14.7773599,58.7181719],[14.7755151,58.716929],[14.77427,58.717776],[14.7738537,58.7168117],[14.772135,58.71592],[14.7715352,58.7175811],[14.7709237,58.7166501],[14.7642461,58.7161111],[14.7616213,58.7142934],[14.7604502,58.7145673],[14.7567182,58.7134973],[14.7573925,58.7149127],[14.7554747,58.7181599],[14.7569655,58.719391],[14.7556222,58.7198269],[14.7543804,58.7187117],[14.7503855,58.717446],[14.751197,58.7170124],[14.7510544,58.7154637],[14.7466381,58.7132686],[14.7429112,58.7125247],[14.7425953,58.7116817],[14.7409342,58.7108104],[14.7392645,58.7106938],[14.7394063,58.7123974],[14.738515,58.7126205],[14.7376831,58.7115466],[14.7348226,58.7103805],[14.7356661,58.7100995],[14.7355388,58.7092233],[14.7326421,58.7083057],[14.7328013,58.7089505],[14.7317827,58.709992],[14.7310346,58.7099176],[14.7308914,58.7078841],[14.7293317,58.7086363],[14.7292362,58.7070243],[14.7273899,58.7070078],[14.7274218,58.7061729],[14.721708,58.704106],[14.7182225,58.7037671],[14.7176973,58.7027419],[14.7188432,58.7027501],[14.7178266,58.7021704],[14.7153895,58.7021631],[14.7157894,58.7015586],[14.7127655,58.7023854],[14.7133384,58.7008475],[14.7097096,58.699723],[14.7099006,58.6991938],[14.7089775,58.698615],[14.7050438,58.6986304],[14.7042054,58.6980978],[14.7055172,58.6980886],[14.704135,58.6978236],[14.70528,58.6976497],[14.7035118,58.6970188],[14.7028364,58.6975287],[14.7022749,58.6969954],[14.7030114,58.696801],[14.7014932,58.6962686],[14.702854,58.6954376],[14.7052135,58.6955182],[14.7062758,58.6950406],[14.7060212,58.694346],[14.7072149,58.6943832],[14.708894,58.6956236],[14.7119498,58.6954665],[14.7124352,58.696033],[14.7148464,58.696219],[14.7144227,58.6965956],[14.7150948,58.6968357],[14.7155547,58.6953714],[14.7176556,58.6943542],[14.7188696,58.6928904],[14.7169927,58.6925634],[14.7167488,58.6912361],[14.7160696,58.6909949],[14.7163958,58.690802],[14.7155179,58.6911925],[14.7150731,58.690643],[14.7144634,58.6913202],[14.7129333,58.689466],[14.7099092,58.6906704],[14.7122162,58.6886356],[14.7110386,58.6887732],[14.7100342,58.688049],[14.7081375,58.6881369],[14.7092153,58.686802],[14.7107526,58.6872815],[14.7114295,58.6868803],[14.712089,58.6878273],[14.7138829,58.6880823],[14.7147964,58.6867703],[14.7127414,58.6868485],[14.7119148,58.6861168],[14.7087971,58.686255],[14.7095557,58.6855909],[14.7044094,58.6845602],[14.7041678,58.6854365],[14.7054105,58.6868391],[14.7030965,58.6873037],[14.7027528,58.6863156],[14.6988023,58.6850833],[14.6985222,58.6846144],[14.7001681,58.6835507],[14.7015045,58.6837385],[14.701379,58.6843602],[14.7027126,58.6848257],[14.7037771,58.6846176],[14.703736,58.6838069],[14.7029491,58.6840608],[14.7034563,58.6833257],[14.7022696,58.6818861],[14.7008103,58.6828491],[14.7000373,58.6814664],[14.6984844,58.6816445],[14.6966996,58.6808538],[14.6954448,58.68126],[14.6955403,58.6806521],[14.6988468,58.6805573],[14.699169,58.679309],[14.6977505,58.6794815],[14.698315,58.6791622],[14.6972484,58.6789787],[14.6956916,58.6796263],[14.6942121,58.6791742],[14.6958,58.6789065],[14.6935701,58.6786681],[14.6921271,58.6797932],[14.6910247,58.6789204],[14.6888092,58.6795339],[14.6893403,58.6787866],[14.6869478,58.6773853],[14.6845365,58.6779235],[14.6843433,58.6786444],[14.6851668,58.6789874],[14.6839839,58.6801153],[14.6813366,58.6790097],[14.6798962,58.6798295],[14.6788904,58.6791324],[14.6754974,58.6791644],[14.6725121,58.6794433],[14.6686578,58.6810536],[14.6577177,58.6826283],[14.6516868,58.6823882],[14.6513746,58.6819151],[14.6522809,58.6811166],[14.6553223,58.6804619],[14.6571963,58.681143],[14.6603217,58.6807553],[14.6681228,58.6787369],[14.6696082,58.678069],[14.6694521,58.677011],[14.6721231,58.675594],[14.678857,58.6738225],[14.6795181,58.6732687],[14.6775605,58.673015],[14.6818134,58.6701278],[14.6820988,58.6691857],[14.6799224,58.6685436],[14.6751937,58.6687941],[14.6731799,58.6673851],[14.6733735,58.6659979],[14.6718956,58.6651944],[14.670804,58.666322],[14.6726257,58.6671151],[14.6722497,58.6672663],[14.6684865,58.6654304],[14.6669609,58.6654184],[14.6639144,58.6665575],[14.6633142,58.6683804],[14.6574457,58.6693098],[14.6567353,58.6680298],[14.6603204,58.6667325],[14.6606726,58.6660205],[14.6580735,58.6650142],[14.6584388,58.6643386],[14.6573135,58.6643269],[14.6574127,58.6652548],[14.6560744,58.6651603],[14.6547197,58.6661225],[14.6541249,58.6647736],[14.6528486,58.6650228],[14.6533607,58.6660667],[14.6517912,58.6665005],[14.6507834,58.6680641],[14.6519316,58.6685968],[14.6513286,58.6695289],[14.6483135,58.6713801],[14.6474874,58.6703707],[14.6479996,58.6697522],[14.6470496,58.6695289],[14.6468018,58.670534],[14.6457692,58.6708733],[14.6447862,58.6723293],[14.6456453,58.6729521],[14.6426136,58.6741374],[14.6419445,58.6729521],[14.6423658,58.6724925],[14.6415067,58.6726729],[14.6412259,58.6715734],[14.6387311,58.6712341],[14.6399289,58.6703364],[14.6394168,58.6699112],[14.6403502,58.6691981],[14.6401685,58.6679997],[14.637872,58.6684593],[14.6380703,58.6668313],[14.6365669,58.6669559],[14.6381612,58.6648252],[14.6377068,58.6630939],[14.6393177,58.6630338],[14.6390203,58.6638328],[14.6400363,58.6646362],[14.6410359,58.6635321],[14.6385028,58.6584123],[14.6374975,58.657991],[14.6373607,58.6590244],[14.6366821,58.6592155],[14.6339213,58.6576038],[14.6315386,58.6575724],[14.6302996,58.6569254],[14.6291209,58.6581762],[14.6290324,58.6594066],[14.6288232,58.6579655],[14.6282841,58.6577688],[14.6246382,58.6579142],[14.6243271,58.6585299],[14.6290001,58.6594397],[14.6272472,58.6602539],[14.6277651,58.6608281],[14.6260716,58.6604528],[14.6215716,58.661696],[14.6206975,58.6613568],[14.6196429,58.6594226],[14.6203978,58.6581527],[14.61974,58.6566511],[14.6145365,58.6570986],[14.6138982,58.6567016],[14.6140509,58.6553013],[14.6127847,58.654538],[14.610679,58.6560304],[14.6087537,58.6535094],[14.6063115,58.6527406],[14.606374,58.6519213],[14.6018122,58.6490752],[14.5973164,58.6439491],[14.597816,58.6431981],[14.597025,58.6422161],[14.5974968,58.6416962],[14.5970528,58.6411185],[14.592668,58.6384105],[14.5941805,58.6382806],[14.5940833,58.6375151],[14.5907253,58.6363234],[14.5942082,58.6370601],[14.5937642,58.6357096],[14.5919603,58.6344601],[14.5920574,58.6335862],[14.589668,58.6337793],[14.5900273,58.6327247],[14.5882599,58.632807],[14.5864252,58.6319551],[14.5861276,58.6323346],[14.5867079,58.6326599],[14.5858598,58.6330936],[14.5837619,58.6317305],[14.5826459,58.6319629],[14.5786776,58.6336212],[14.5775709,58.6357827],[14.5770299,58.6351634],[14.5763686,58.6353529],[14.5767979,58.6316242],[14.5751031,58.6317445],[14.5753115,58.6300857],[14.5739382,58.63027],[14.573434,58.6292661],[14.5718823,58.6300131],[14.5662068,58.6303049],[14.5661572,58.6297373],[14.5651178,58.6296061],[14.565894,58.6288277],[14.5656472,58.6283209],[14.56377,58.6293122],[14.564053,58.6286273],[14.5630617,58.6260387],[14.5623212,58.6261019],[14.5628691,58.6265098],[14.5623978,58.6266997],[14.559253,58.6262897],[14.5593412,58.6267839],[14.5583365,58.6271766],[14.5596629,58.627695],[14.5595184,58.6282365],[14.557615,58.6275415],[14.5573209,58.6280141],[14.5569438,58.6270557],[14.5557089,58.6271895],[14.5558285,58.6287181],[14.5549299,58.6270231],[14.553692,58.6283025],[14.5517274,58.6276201],[14.5509924,58.6282334],[14.5509541,58.6300162],[14.5491445,58.6287601],[14.5470075,58.6307203],[14.5461235,58.6293863],[14.5455633,58.6293222],[14.5459805,58.6294524],[14.5453204,58.6301891],[14.5439565,58.6296836],[14.5451608,58.629301],[14.5438975,58.6288821],[14.5433316,58.6244011],[14.5419851,58.6229082],[14.5429775,58.6227448],[14.5414031,58.6225367],[14.5400834,58.6205382],[14.5419262,58.6198718],[14.5412824,58.6190354],[14.5418563,58.6185982],[14.5404495,58.6166833],[14.5411161,58.6157886],[14.5395939,58.6143464],[14.5397522,58.6138204],[14.538855,58.6135418],[14.5398903,58.6135306],[14.5385224,58.6130137],[14.5394719,58.6118878],[14.5390284,58.6089924],[14.5397861,58.6011156],[14.5406467,58.5989018],[14.5341854,58.5913605],[14.5342245,58.5904421],[14.5355485,58.5889386],[14.5371143,58.5892648],[14.5403158,58.5871685],[14.5442919,58.5867759],[14.5438408,58.5864675],[14.5443402,58.5856167],[14.5427083,58.5845335],[14.5431064,58.5834402],[14.5454662,58.5820294],[14.5525569,58.5831667],[14.5530925,58.5825766],[14.5525229,58.5809893],[14.5535392,58.5795087],[14.553193,58.5789536],[14.553997,58.5763531],[14.5567405,58.5734768],[14.5571835,58.5720851],[14.5589777,58.5709554],[14.5562864,58.570804],[14.5544847,58.5732167],[14.5550058,58.5741775],[14.5540305,58.5752352],[14.5528319,58.5792874],[14.5506926,58.579854],[14.5450071,58.5795905],[14.5433119,58.5784763],[14.544428,58.5777298],[14.5407219,58.5764288],[14.5330148,58.5763355],[14.5301088,58.5755725],[14.5277188,58.5746448],[14.527424,58.5743099],[14.5280134,58.5740061],[14.5264053,58.573024],[14.527127,58.5728236],[14.52648,58.5726847],[14.5266877,58.5720331],[14.5278868,58.5727367],[14.5265095,58.5717701],[14.5254225,58.5691651],[14.5251247,58.5642925],[14.5257501,58.5629878],[14.5249535,58.5604443],[14.5253853,58.5594813],[14.5224446,58.5562501],[14.5185292,58.5554839],[14.5123708,58.5576135],[14.5097999,58.557023],[14.509875,58.5565669],[14.5089805,58.5561076],[14.5094962,58.5565879],[14.5089255,58.5568614],[14.5080766,58.5567614],[14.5085225,58.556257],[14.5077279,58.5567628],[14.5063359,58.5564018],[14.5034632,58.5535599],[14.5032191,58.550694],[14.5037395,58.5501258],[14.5059657,58.5503189],[14.5036228,58.5500055],[14.5039406,58.549333],[14.5064874,58.5485976],[14.5064915,58.5504728],[14.507402,58.5480098],[14.5044443,58.5471803],[14.5029616,58.5447487],[14.5057243,58.5430537],[14.5120493,58.5411759],[14.5101888,58.5411444],[14.509348,58.5395052],[14.5074248,58.53833],[14.5070225,58.539067],[14.50625,58.5391769],[14.5073752,58.5366864],[14.5133793,58.5322223],[14.5179688,58.5312119],[14.5208246,58.5314929],[14.5217121,58.5322822],[14.5215885,58.533572],[14.5253028,58.533666],[14.5254978,58.5348745],[14.5273713,58.5359881],[14.5325928,58.5365759],[14.5331743,58.5369771],[14.5330276,58.5388359],[14.5360626,58.5395332],[14.5369206,58.5402843],[14.5387243,58.540452],[14.540256,58.538206],[14.5392255,58.5370318],[14.5399289,58.5358957],[14.5381732,58.5345554],[14.5351715,58.5304369],[14.5351425,58.5285973],[14.5329187,58.5266761],[14.5331123,58.5256335],[14.5322755,58.5255377],[14.529869,58.5228543],[14.5297403,58.5223742],[14.5308539,58.5220263],[14.5304044,58.5217092],[14.5311768,58.5202246],[14.5305428,58.5195338],[14.5321027,58.5167486],[14.5299334,58.5165127],[14.5279378,58.5149314],[14.5280376,58.5140411],[14.5253715,58.5132605],[14.5233738,58.5113484],[14.5234038,58.5081053],[14.5215227,58.5075048],[14.520846,58.5058124],[14.5189116,58.5052127],[14.5161232,58.50184],[14.5162402,58.5004801],[14.5132947,58.4967833],[14.513004,58.4953632],[14.5143976,58.4948788],[14.5131971,58.4937927],[14.5134975,58.4929741],[14.5108561,58.4898128],[14.5075752,58.4874677],[14.5074035,58.4861448],[14.5052792,58.4829027],[14.506395,58.4823979],[14.5039703,58.4819397],[14.4991209,58.4793259],[14.4966007,58.4787959],[14.4913103,58.4748709],[14.4902374,58.4749163],[14.4893147,58.4764988],[14.4850017,58.4766447],[14.4859029,58.4773509],[14.4839063,58.4790337],[14.4832422,58.480694],[14.4761601,58.4827114],[14.4697614,58.4833626],[14.4651298,58.4827355],[14.4552163,58.4798532],[14.4538141,58.4784918],[14.4553225,58.4772264],[14.454122,58.473391],[14.4550854,58.4703603],[14.454314,58.4696747],[14.454697,58.469057],[14.4499774,58.4660966],[14.4498304,58.4647836],[14.4516104,58.4608772],[14.4545522,58.4598901],[14.4557313,58.4588125],[14.4591806,58.4584067],[14.4608811,58.4591386],[14.4619744,58.4584527],[14.4658486,58.4586503],[14.4678441,58.4569054],[14.4620265,58.4552459],[14.4600366,58.4563597],[14.4563096,58.4559602],[14.453887,58.4545917],[14.4521715,58.4521],[14.4520781,58.4500191],[14.4541347,58.4463517],[14.4558486,58.4452541],[14.4562939,58.4452611],[14.4569269,58.4456808],[14.4573453,58.4456878],[14.456546,58.4452358],[14.4583163,58.4442505],[14.4603547,58.4438925],[14.4646758,58.4453285],[14.4673258,58.4443333],[14.4696942,58.4448358],[14.4700348,58.4434826],[14.4680151,58.4426587],[14.4658264,58.4431626],[14.462294,58.4426685],[14.4608697,58.4419385],[14.4612989,58.4411959],[14.4575477,58.4399128],[14.4531102,58.4403637],[14.4437921,58.4381573],[14.432571,58.437611],[14.4268192,58.4359818],[14.419352,58.4355449],[14.4127215,58.4336017],[14.4073961,58.430753],[14.4049116,58.427677],[14.4047543,58.4253199],[14.4066672,58.4225522],[14.409696,58.422748],[14.4088441,58.4183785],[14.4046406,58.4135021],[14.4050719,58.4129638],[14.4034786,58.4102977],[14.4044045,58.4091978],[14.4041417,58.4084986],[14.3998512,58.4052252],[14.4001559,58.4021616],[14.3969984,58.3990675],[14.3972988,58.3970885],[14.391251,58.3928395],[14.3889969,58.3896338],[14.3889314,58.3884416],[14.389897,58.3882729],[14.3899217,58.3876998],[14.38869,58.3864935],[14.3873682,58.38338],[14.387733,58.3812432],[14.3893638,58.3797352],[14.3888263,58.3772494],[14.386202,58.3752777],[14.3862739,58.3740878],[14.3822141,58.3727015],[14.3785191,58.3700577],[14.378827,58.3693944],[14.3780964,58.3683928],[14.3765514,58.3680439],[14.3712074,58.3639918],[14.3710325,58.3627751],[14.3674748,58.3599629],[14.3672195,58.3589616],[14.3645362,58.3563832],[14.3641146,58.35303],[14.3627531,58.3510124],[14.3590838,58.3497525],[14.3568125,58.3473434],[14.3533525,58.3457427],[14.3515543,58.3437276],[14.3426054,58.3402031],[14.3393525,58.3358694],[14.3394633,58.3333867],[14.3402473,58.3329029],[14.3395392,58.3328533],[14.3396302,58.332386],[14.3405588,58.3330174],[14.339951,58.3319964],[14.3421255,58.3311972],[14.340098,58.3300634],[14.3395171,58.3277791],[14.3406747,58.3267316],[14.3387365,58.3252618],[14.3368501,58.3223243],[14.3289267,58.318106],[14.3235917,58.3142136],[14.3094851,58.3100432],[14.3019721,58.306768],[14.295368,58.3047237],[14.2935754,58.3027668],[14.292814,58.3029564],[14.2920017,58.3023322],[14.292496,58.3020426],[14.290182,58.3012351],[14.2863149,58.2984477],[14.2816472,58.2914654],[14.2815614,58.2876306],[14.282425,58.2856059],[14.2847645,58.2832922],[14.2834738,58.2801767],[14.284367,58.2782393],[14.2838681,58.2773339],[14.2850444,58.2756828],[14.2848873,58.2738615],[14.2854988,58.2724284],[14.2878914,58.2695001],[14.2880209,58.2685541],[14.2871833,58.2676944],[14.2863893,58.2623333],[14.2773771,58.2558537],[14.2769265,58.2533812],[14.2789755,58.2519678],[14.2779098,58.2505314],[14.2750345,58.2496285],[14.2701352,58.249644],[14.2634833,58.2457539],[14.2572606,58.2399885],[14.2574108,58.2370179],[14.2586738,58.2338432],[14.2615693,58.231145],[14.266423,58.2249354],[14.2645025,58.2233986],[14.2637527,58.2186937],[14.2612702,58.2171038],[14.2469831,58.2120389],[14.2399976,58.2085612],[14.2381954,58.2071627],[14.2380253,58.2063169],[14.2326266,58.2025363],[14.2305124,58.1984093],[14.2304278,58.1957909],[14.2326705,58.1910868],[14.2327998,58.1882114],[14.2344381,58.1856192],[14.2344263,58.1831325],[14.2335787,58.1826307],[14.2337903,58.1814148],[14.2309652,58.1786368],[14.2245216,58.1763972],[14.2227671,58.173941],[14.2224443,58.1720554],[14.223305,58.1697991],[14.2253836,58.1671644],[14.2239236,58.164687],[14.2235498,58.1603588],[14.2269081,58.1559749],[14.2270743,58.1540666],[14.225825,58.1534775],[14.2275698,58.1492454],[14.2267546,58.1480829],[14.2281756,58.1423416],[14.2281693,58.1402831],[14.226684,58.1356651],[14.2273434,58.1329345],[14.2253894,58.1288083],[14.2258495,58.1282368],[14.2253947,58.1250575],[14.213802,58.1148936],[14.2144694,58.1123933],[14.2130881,58.1119237],[14.212174,58.1105519],[14.2124713,58.1082516],[14.2115913,58.1050147],[14.2136482,58.1030388],[14.2132579,58.1026031],[14.2133658,58.103186],[14.2128742,58.1031828],[14.2125758,58.1027931],[14.213118,58.1026869],[14.211963,58.1024067],[14.2113064,58.099836],[14.210728,58.0995525],[14.2109508,58.0979015],[14.2127903,58.0966473],[14.2114654,58.0956429],[14.211897,58.0949871],[14.2097082,58.0942591],[14.2093132,58.0924998],[14.2070591,58.0913115],[14.2068792,58.090101],[14.2080358,58.0886799],[14.207318,58.0880806],[14.207287,58.0869284],[14.2061815,58.0863812],[14.204271,58.08387],[14.2040775,58.0807017],[14.2046564,58.0804946],[14.2039897,58.08008],[14.2053658,58.0781599],[14.2041377,58.0767766],[14.2040579,58.0744307],[14.2011829,58.0706985],[14.2017679,58.0692327],[14.2010773,58.0674762],[14.2015538,58.0672968],[14.200935,58.0670271],[14.2013888,58.0668121],[14.2004881,58.0660304],[14.2009926,58.0656985],[14.1991176,58.0650072],[14.1988513,58.0640061],[14.1974884,58.0630236],[14.1957347,58.0606178],[14.1957642,58.0592394],[14.1903306,58.052573],[14.1883687,58.0515872],[14.1884425,58.0493819],[14.1865656,58.0476882],[14.1871795,58.0465814],[14.1902409,58.0446081],[14.1868468,58.0414016],[14.1857982,58.0411645],[14.1819004,58.0366358],[14.1789227,58.035514],[14.1777598,58.0337913],[14.175099,58.0318759],[14.1736642,58.0294669],[14.1734818,58.0276893],[14.17263,58.0271817],[14.1743769,58.0243832],[14.1780261,58.0224507],[14.1756266,58.0229913],[14.1761508,58.0221559],[14.1756115,58.0216675],[14.177834,58.0221311],[14.1771832,58.0217047],[14.1815633,58.0181118],[14.1821051,58.0165349],[14.1791039,58.0153931],[14.1688794,58.0139992],[14.1646093,58.0127565],[14.1577725,58.0078473],[14.1556788,58.0050722],[14.1522789,58.0032121],[14.150256,57.9996831],[14.1516653,57.9961179],[14.1494328,57.9934162],[14.1492727,57.9917257],[14.1467501,57.9898725],[14.1451601,57.9868099],[14.144212,57.9862471],[14.1441356,57.9852765],[14.1419114,57.9838027],[14.1371065,57.9824309],[14.1329417,57.9799502],[14.1314648,57.9767977],[14.1318506,57.9752252],[14.1288435,57.9731724],[14.128166,57.9712409],[14.1287036,57.97022],[14.1276141,57.9681458],[14.1205645,57.964193],[14.1181338,57.9605389],[14.1179278,57.9557935],[14.1165292,57.954518],[14.1169085,57.9539202],[14.1161,57.9536701],[14.1168261,57.9508312],[14.1158378,57.9486007],[14.117865,57.9448918],[14.1199246,57.9433308],[14.1234153,57.938956],[14.1219159,57.9373271],[14.1217285,57.935687],[14.1229853,57.9322636],[14.1225962,57.9307933],[14.1234717,57.9276689],[14.125288,57.9250323],[14.1252175,57.9173483],[14.1198825,57.9028562],[14.1140189,57.8952209],[14.113675,57.8921964],[14.1112596,57.8894414],[14.110697,57.8860108],[14.1098639,57.8849222]],[[14.2756404,57.9978284],[14.284602,58.0087024],[14.2861869,58.0121658],[14.292604,58.0209779],[14.2937851,58.024856],[14.295062,58.0267008],[14.2946965,58.0289776],[14.2993728,58.0321971],[14.3029808,58.0372221],[14.3049372,58.0382767],[14.3083553,58.041839],[14.3219483,58.0511504],[14.3330361,58.0629248],[14.3459216,58.0728161],[14.3467133,58.0740553],[14.3580863,58.0792469],[14.3610532,58.0814369],[14.3656038,58.0868888],[14.3716307,58.0904118],[14.3740027,58.0945745],[14.3729923,58.0974416],[14.3738881,58.0984187],[14.3826087,58.1003134],[14.3909153,58.1029857],[14.3936098,58.104576],[14.3935983,58.1058359],[14.3964426,58.1080575],[14.4014945,58.1067766],[14.4032785,58.1054473],[14.4034253,58.1038036],[14.4051688,58.101354],[14.411179,58.0969566],[14.4147572,58.091696],[14.4146499,58.0910084],[14.4085157,58.0907943],[14.4039261,58.0882248],[14.3944367,58.0889959],[14.3849521,58.0883401],[14.3794861,58.0870815],[14.3762497,58.0850388],[14.3744662,58.0817509],[14.3756632,58.0786421],[14.3752955,58.0686897],[14.3745474,58.0653198],[14.3724292,58.0608682],[14.3701974,58.0573065],[14.3660501,58.0535666],[14.3567605,58.042382],[14.3545134,58.0391963],[14.3534867,58.0368044],[14.3535728,58.0349122],[14.3516851,58.032961],[14.3515505,58.0316084],[14.3483831,58.0290459],[14.3429908,58.0255876],[14.3344022,58.021668],[14.3239438,58.0130884],[14.316259,58.0078368],[14.3019262,58.0007802],[14.292938,57.9979448],[14.2906183,57.9981042],[14.2906554,57.9987483],[14.2895059,57.9994164],[14.2832092,58.000075],[14.2807258,57.9995321],[14.2768641,57.9972047],[14.2756404,57.9978284]],[[14.4779759,58.4604957],[14.478463,58.461616],[14.4800217,58.4619082],[14.4807523,58.4627363],[14.48197,58.4622979],[14.4802165,58.4603009],[14.4788527,58.4600086],[14.4779759,58.4604957]],[[14.5122502,58.542933],[14.5138953,58.5444357],[14.5149851,58.5437805],[14.5145718,58.5416431],[14.5131952,58.5418588],[14.5122502,58.542933]],[[14.5171994,58.5397093],[14.5184102,58.5395967],[14.5182549,58.5382463],[14.5174442,58.5386749],[14.5171994,58.5397093]],[[14.5512722,58.6270208],[14.5513447,58.6272302],[14.551574,58.626995],[14.5512722,58.6270208]],[[14.5528413,58.6272212],[14.5527904,58.6274187],[14.5529728,58.6273468],[14.5528413,58.6272212]],[[14.5529741,58.6271353],[14.5530304,58.6272952],[14.5531404,58.6272163],[14.5529741,58.6271353]],[[14.5557885,58.6261547],[14.5568185,58.6266965],[14.5576446,58.6259983],[14.5560996,58.625719],[14.5557885,58.6261547]],[[14.5658326,58.6276589],[14.5661303,58.6286615],[14.5685282,58.6282747],[14.5688501,58.628938],[14.5719212,58.6288151],[14.5708162,58.6267597],[14.5698801,58.6267569],[14.5705935,58.6264022],[14.570725,58.624975],[14.5699954,58.6252515],[14.5698184,58.6239011],[14.5690995,58.6233935],[14.569007,58.623883],[14.5680816,58.6236805],[14.568252,58.6247048],[14.5669806,58.6252529],[14.5667499,58.6268043],[14.5658326,58.6276589]],[[14.5663583,58.6254596],[14.5664656,58.6256062],[14.56653,58.6254484],[14.5663583,58.6254596]],[[14.5665541,58.6250707],[14.5665689,58.6251943],[14.5666493,58.6251035],[14.5665541,58.6250707]],[[14.5665447,58.6249974],[14.5665742,58.6250309],[14.5666239,58.6250099],[14.5665447,58.6249974]],[[14.566589,58.6297359],[14.5666198,58.6297667],[14.5666735,58.6297038],[14.566589,58.6297359]],[[14.5675237,58.623737],[14.567458,58.6242244],[14.5676579,58.6241364],[14.5675237,58.623737]],[[14.5685135,58.6211017],[14.5695401,58.6211381],[14.5692524,58.6216736],[14.5699203,58.6219613],[14.5695126,58.6222414],[14.5709395,58.6232378],[14.5732677,58.6239668],[14.5728305,58.6252362],[14.5736325,58.6252711],[14.573717,58.6268386],[14.5744747,58.6263966],[14.5741931,58.625387],[14.5759714,58.6251677],[14.5764005,58.6236183],[14.5754121,58.6225507],[14.5722082,58.6218259],[14.5717978,58.6210633],[14.5706499,58.6213594],[14.5698412,58.6205696],[14.5685135,58.6211017]],[[14.5690204,58.6204481],[14.5688514,58.6206974],[14.5690942,58.6206031],[14.5690204,58.6204481]],[[14.5688608,58.6233425],[14.568893,58.6234417],[14.5689373,58.623346],[14.5688608,58.6233425]],[[14.5691639,58.6203434],[14.5692484,58.6204202],[14.5692846,58.6203524],[14.5691639,58.6203434]],[[14.5715001,58.6257682],[14.5731644,58.6259379],[14.5732234,58.6256607],[14.5721519,58.6250428],[14.5715001,58.6257682]],[[14.5730518,58.6292849],[14.5730826,58.6293527],[14.5731175,58.6292975],[14.5730518,58.6292849]],[[14.5751587,58.6287439],[14.5754269,58.6293261],[14.5757675,58.6288584],[14.5751587,58.6287439]],[[14.5758292,58.6295677],[14.5762959,58.6296312],[14.5766795,58.629257],[14.5763174,58.6291422],[14.5758292,58.6295677]],[[14.5768967,58.6268393],[14.5772561,58.627409],[14.5777041,58.6274104],[14.5773581,58.626775],[14.5768967,58.6268393]],[[14.5775324,58.6286531],[14.5788896,58.6298427],[14.5801073,58.6292787],[14.5809656,58.6297785],[14.5815825,58.6290692],[14.5791578,58.6277455],[14.5775324,58.6286531]],[[14.5780782,58.624568],[14.5784014,58.6252473],[14.5788588,58.6246566],[14.5780782,58.624568]],[[14.5780595,58.6259372],[14.5787515,58.6263687],[14.5787086,58.6253814],[14.5792866,58.6265286],[14.5802508,58.6263177],[14.5793067,58.624848],[14.5780595,58.6259372]],[[14.5783934,58.6323301],[14.5781815,58.6329451],[14.5785382,58.6327873],[14.5783934,58.6323301]],[[14.5781401,58.6252924],[14.5782727,58.6254743],[14.578333,58.6252781],[14.5781401,58.6252924]],[[14.5783773,58.6331496],[14.5782512,58.6334463],[14.5785651,58.6331678],[14.5783773,58.6331496]],[[14.5790827,58.6314777],[14.5794663,58.6320739],[14.5807162,58.6321633],[14.5827627,58.6307377],[14.5809549,58.6306226],[14.5790827,58.6314777]],[[14.5798847,58.6272372],[14.5808423,58.6272205],[14.5819446,58.6287927],[14.5831047,58.6288905],[14.5814364,58.6262563],[14.5808154,58.6271576],[14.5798847,58.6272372]],[[14.5805955,58.6250393],[14.5811735,58.6253339],[14.5813586,58.6252843],[14.580979,58.6246888],[14.5805955,58.6250393]],[[14.5816429,58.6254512],[14.5815866,58.6256286],[14.5817032,58.6255238],[14.5816429,58.6254512]],[[14.5821297,58.6314851],[14.5821572,58.6315999],[14.5823798,58.6314292],[14.5821297,58.6314851]],[[14.5852371,58.6311357],[14.5852397,58.6311915],[14.5852612,58.6311817],[14.5852371,58.6311357]],[[14.586833,58.6309046],[14.5868343,58.6314592],[14.5872936,58.6312714],[14.586833,58.6309046]],[[14.5865755,58.6316976],[14.5865969,58.6317737],[14.5866305,58.6317472],[14.5865755,58.6316976]],[[14.5872514,58.6315168],[14.5871361,58.6318729],[14.5873842,58.6319126],[14.5872514,58.6315168]],[[14.6104521,58.6525989],[14.6110422,58.6529636],[14.6104537,58.6534604],[14.6114158,58.6543277],[14.6124962,58.6538929],[14.6165144,58.6543541],[14.6180028,58.6536828],[14.6171327,58.6525982],[14.6152353,58.6522234],[14.6129584,58.6496144],[14.6115969,58.64921],[14.6104645,58.6499353],[14.6119601,58.6514804],[14.6104521,58.6525989]],[[14.6118058,58.2594612],[14.6122457,58.2610641],[14.6125676,58.2612108],[14.6125354,58.2596136],[14.6118058,58.2594612]],[[14.6268919,58.6604545],[14.6269322,58.6605493],[14.6270824,58.6604614],[14.6268919,58.6604545]],[[14.6328208,58.2794832],[14.6328798,58.2796975],[14.6329495,58.2796087],[14.6328208,58.2794832]],[[14.6492512,58.6651946],[14.6502424,58.6654524],[14.6517128,58.6653493],[14.6510189,58.6642238],[14.6492512,58.6651946]],[[14.6785659,58.6772082],[14.6811944,58.6775875],[14.687106,58.6757636],[14.6876424,58.6764719],[14.6889514,58.6763855],[14.6878007,58.6756939],[14.6903492,58.6756047],[14.6907649,58.6739595],[14.6928055,58.6745839],[14.6922612,58.6750608],[14.6930646,58.6755765],[14.6968102,58.6749688],[14.699015,58.6744054],[14.70137,58.6725674],[14.6986878,58.6718367],[14.7002649,58.6714155],[14.6999055,58.6709999],[14.6956569,58.670548],[14.6942782,58.6712677],[14.6946484,58.6715326],[14.6917999,58.671859],[14.6918642,58.6727348],[14.6886456,58.6741906],[14.6882701,58.6738922],[14.6894261,58.6728658],[14.6887046,58.6722202],[14.6861351,58.6730374],[14.6844667,58.6728129],[14.6895334,58.6688814],[14.6866178,58.6687503],[14.682616,58.6703863],[14.6821198,58.6707112],[14.6824631,58.6717084],[14.6813661,58.6720723],[14.681932,58.6730778],[14.6836111,58.6730123],[14.6839383,58.6737946],[14.6858132,58.6741711],[14.6861109,58.6751891],[14.6837854,58.6753704],[14.6836769,58.6762291],[14.6828198,58.6767369],[14.6819454,58.6765305],[14.681527,58.6751584],[14.6798259,58.6750852],[14.6790916,58.6755293],[14.6801269,58.6766421],[14.6785659,58.6772082]],[[14.6897185,58.6699707],[14.6908982,58.6704418],[14.6928138,58.6696813],[14.6913198,58.6686094],[14.6897185,58.6699707]],[[14.7028774,58.6725395],[14.7033602,58.6738643],[14.7081774,58.6725451],[14.7061014,58.6718506],[14.7028774,58.6725395]],[[14.7053182,58.6711645],[14.7078127,58.6717453],[14.7100309,58.6709044],[14.7056562,58.6702886],[14.7053182,58.6711645]],[[14.7113629,58.688437],[14.7114434,58.6885429],[14.7114729,58.6885206],[14.7113629,58.688437]],[[14.7158999,58.6898343],[14.7163505,58.6902525],[14.7165221,58.689996],[14.7158999,58.6898343]],[[14.7162697,58.4846558],[14.7167873,58.485455],[14.7177073,58.4853499],[14.7172567,58.4847049],[14.7162697,58.4846558]],[[14.7164675,58.6909009],[14.7164413,58.6909804],[14.7165279,58.6909243],[14.7164675,58.6909009]],[[14.7172114,58.6909201],[14.7171739,58.6912156],[14.7173187,58.6912686],[14.7172114,58.6909201]],[[14.7173375,58.6903724],[14.7186357,58.6913703],[14.719494,58.6910526],[14.7178203,58.6899319],[14.7173375,58.6903724]],[[14.7184426,58.6916491],[14.7189844,58.6919362],[14.7185606,58.6922958],[14.7197944,58.6924798],[14.7195959,58.6916045],[14.7184426,58.6916491]],[[14.7186947,58.6937453],[14.7189308,58.6938847],[14.7191614,58.6935781],[14.7186947,58.6937453]],[[14.7187832,58.6954717],[14.7199988,58.6962223],[14.721272,58.6957362],[14.7211562,58.6963381],[14.7241236,58.6954795],[14.7214449,58.6954145],[14.7238634,58.6951965],[14.7231575,58.6948903],[14.7243738,58.694301],[14.7230081,58.6942547],[14.7225714,58.694031],[14.7228923,58.6932594],[14.7219446,58.6933106],[14.7187832,58.6954717]],[[14.7200895,58.6921537],[14.7203845,58.6925049],[14.7203094,58.6921118],[14.7200895,58.6921537]],[[14.7205263,58.6916397],[14.7203761,58.6920523],[14.7207034,58.6918878],[14.7205263,58.6916397]],[[14.752316,58.69506],[14.7541816,58.6962747],[14.754507,58.6955372],[14.756481,58.6950166],[14.7536609,58.6931944],[14.7527933,58.6935198],[14.7531837,58.6942573],[14.752316,58.69506]],[[14.7546371,58.692843],[14.7585244,58.6950296],[14.7693359,58.6956717],[14.7670625,58.6953246],[14.766108,58.6944048],[14.7649453,58.6951164],[14.7637479,58.6948387],[14.7625331,58.6940925],[14.7603292,58.6910555],[14.7591318,58.6917323],[14.7577608,58.691177],[14.7566502,58.6924612],[14.7560601,58.6921315],[14.7546371,58.692843]],[[14.7549183,58.6972564],[14.7555568,58.6982142],[14.7549183,58.6991453],[14.7557696,58.6993316],[14.7564879,58.6985866],[14.7597603,58.6979215],[14.7577117,58.6995178],[14.7576585,58.7005288],[14.7596804,58.7022846],[14.7602391,58.7010076],[14.7623143,58.7025241],[14.7648472,58.7031315],[14.7671002,58.7023636],[14.7683569,58.7027787],[14.7684349,58.7038804],[14.7786227,58.7057698],[14.7797667,58.705823],[14.7809107,58.7043066],[14.7826665,58.7044662],[14.784449,58.7071],[14.787748,58.7076055],[14.7900359,58.7087229],[14.7884397,58.7096008],[14.7884663,58.710931],[14.7877214,58.7116493],[14.784316,58.7100797],[14.7825867,58.709654],[14.7820014,58.7101063],[14.7814693,58.7112237],[14.782773,58.713086],[14.7871893,58.714363],[14.7921909,58.7138575],[14.7932284,58.714629],[14.7979108,58.7104256],[14.8000657,58.7065147],[14.7978842,58.70569],[14.7988685,58.7053973],[14.7978842,58.703269],[14.7968998,58.7032956],[14.7966604,58.7042534],[14.7939201,58.7030562],[14.7933349,58.7034818],[14.7918982,58.703003],[14.7850343,58.7035616],[14.7849279,58.7042534],[14.7843692,58.7042268],[14.7807776,58.7011407],[14.7764145,58.6998371],[14.7703754,58.6995178],[14.7701359,58.6989059],[14.7679278,58.6988527],[14.7671829,58.698028],[14.7624207,58.6978417],[14.7604254,58.6964051],[14.759175,58.6967244],[14.7597337,58.6961923],[14.7569136,58.6951547],[14.7560357,58.6957134],[14.7568338,58.6976289],[14.7549183,58.6972564]],[[14.7779521,58.7106243],[14.7794731,58.7120891],[14.7807876,58.7122017],[14.7809378,58.7097605],[14.7783276,58.7086902],[14.7779896,58.7099671],[14.7786469,58.7104929],[14.7779521,58.7106243]],[[14.7796074,58.6467109],[14.7802463,58.6469526],[14.7812112,58.6475198],[14.7801882,58.6466946],[14.7796074,58.6467109]],[[14.7814035,58.6497824],[14.7815021,58.6513023],[14.7826344,58.6513501],[14.7814035,58.6497824]],[[14.7829781,58.5355735],[14.7844459,58.5370551],[14.785229,58.5371759],[14.7844619,58.5361779],[14.7829781,58.5355735]],[[14.7849796,58.7207107],[14.7853658,58.7210951],[14.7859779,58.7208948],[14.7859023,58.7204935],[14.7849796,58.7207107]],[[14.7852232,58.5377617],[14.7861089,58.5386386],[14.7887286,58.5378485],[14.7882401,58.5375235],[14.7852232,58.5377617]],[[14.7897829,58.5392525],[14.7901341,58.5399363],[14.7913729,58.539984],[14.7913812,58.5391724],[14.7902954,58.5381394],[14.7897829,58.5392525]],[[14.7989568,58.6668395],[14.799732,58.6672984],[14.8003811,58.6670641],[14.7993377,58.666541],[14.7989568,58.6668395]],[[14.7996609,58.6681352],[14.7998956,58.6688668],[14.8004401,58.6691032],[14.8004803,58.668629],[14.7996609,58.6681352]],[[14.8024249,58.6664308],[14.8051769,58.6678139],[14.8065501,58.6674839],[14.8046109,58.6664685],[14.8050159,58.6659426],[14.8041201,58.6646552],[14.8037446,58.6654715],[14.8027065,58.6655549],[14.8035702,58.6663137],[14.8024249,58.6664308]],[[14.8030084,58.6590732],[14.8048807,58.6621529],[14.8067566,58.6632872],[14.8071091,58.664879],[14.8065243,58.6651898],[14.8075627,58.6669455],[14.8069624,58.6676315],[14.8079057,58.6686177],[14.8070482,58.6692179],[14.8080662,58.6696892],[14.8079914,58.6711902],[14.8087632,58.6711473],[14.810178,58.6734625],[14.8091062,58.6741485],[14.8098351,58.6743629],[14.8098351,58.6751775],[14.8079057,58.6771498],[14.8086346,58.6833237],[14.8104353,58.6862821],[14.8116358,58.6863678],[14.8121932,58.6897978],[14.8145513,58.6930992],[14.8190103,58.6959289],[14.8191818,58.6968722],[14.8199535,58.697258],[14.8245411,58.6975153],[14.827328,58.6956717],[14.8302006,58.6923274],[14.8353884,58.6893691],[14.8297718,58.6846528],[14.8284427,58.684267],[14.8225689,58.6847815],[14.814637,58.6821232],[14.814294,58.6814372],[14.8151944,58.6798937],[14.8147228,58.6776643],[14.8119359,58.6729051],[14.81155,58.6703755],[14.8090633,58.6668169],[14.8070602,58.6652127],[14.8076896,58.6643025],[14.8071798,58.6632826],[14.8078666,58.6617395],[14.8094657,58.6610897],[14.8127336,58.6611446],[14.8155677,58.6590081],[14.8154232,58.657673],[14.8120096,58.6564625],[14.81085,58.6567398],[14.8112321,58.6575636],[14.8093671,58.658818],[14.8030084,58.6590732]],[[14.8086047,58.6950613],[14.8091921,58.6958571],[14.8097929,58.6951644],[14.8093611,58.6948913],[14.8086047,58.6950613]],[[14.8177284,58.7435126],[14.8196222,58.7442495],[14.8205228,58.7438541],[14.8183289,58.7432789],[14.8177284,58.7435126]],[[14.82049,58.5575558],[14.821251,58.558383],[14.8220639,58.5583531],[14.8209462,58.5568967],[14.82049,58.5575558]],[[14.8205458,58.5556568],[14.8215412,58.5557635],[14.8221003,58.5549786],[14.8212367,58.5548885],[14.8205458,58.5556568]],[[14.8211579,58.7426678],[14.8209732,58.7427876],[14.8211926,58.7428415],[14.8211579,58.7426678]],[[14.8218389,58.7478897],[14.8217899,58.7481015],[14.8219532,58.7480506],[14.8218389,58.7478897]],[[14.8216818,58.5563577],[14.8218333,58.5568498],[14.8233686,58.5561351],[14.8225734,58.5559483],[14.8216818,58.5563577]],[[14.8223819,58.7429254],[14.8221741,58.7430093],[14.8224512,58.743213],[14.8223819,58.7429254]],[[14.8223675,58.7689835],[14.8233734,58.7710777],[14.8259645,58.7721174],[14.824961,58.7691166],[14.8233374,58.7681153],[14.8223675,58.7689835]],[[14.8230146,58.7478388],[14.8232269,58.7482285],[14.8238475,58.7482624],[14.8230146,58.7478388]],[[14.8241901,58.5576073],[14.8243376,58.558051],[14.8245247,58.5577286],[14.8241901,58.5576073]],[[14.8243673,58.5581862],[14.8243876,58.5583749],[14.8245136,58.5582138],[14.8243673,58.5581862]],[[14.8253341,58.5579687],[14.8252996,58.5584301],[14.8256508,58.5580064],[14.8253341,58.5579687]],[[14.8252622,58.7656904],[14.8261321,58.7665884],[14.8273272,58.7664387],[14.8278122,58.7655525],[14.8268707,58.7649029],[14.8277689,58.7645811],[14.826487,58.7642339],[14.8260216,58.764742],[14.8264217,58.7653432],[14.8252622,58.7656904]],[[14.8256316,58.7451743],[14.8278256,58.746109],[14.8304468,58.745378],[14.8266593,58.7452163],[14.8264284,58.7447609],[14.8256316,58.7451743]],[[14.8260598,58.78147],[14.8277745,58.7825788],[14.828591,58.782291],[14.8280358,58.7815208],[14.8260598,58.78147]],[[14.8265334,58.7796333],[14.8311712,58.7804289],[14.8315141,58.7795741],[14.830224,58.7792778],[14.8291299,58.7797857],[14.8276765,58.7790577],[14.8265334,58.7796333]],[[14.8276275,58.7803866],[14.8282644,58.7807083],[14.8284114,58.7806659],[14.8281011,58.7804713],[14.8276275,58.7803866]],[[14.8289689,58.7472985],[14.829246,58.7477059],[14.8295924,58.7478796],[14.8294423,58.7473764],[14.8289689,58.7472985]],[[14.8293422,58.7819102],[14.8297015,58.7821133],[14.8297668,58.7819694],[14.8293422,58.7819102]],[[14.8298856,58.7515695],[14.8324412,58.7529672],[14.8340377,58.7526812],[14.8345397,58.7533653],[14.8360127,58.7533724],[14.8351818,58.7542364],[14.8378807,58.7530706],[14.8372913,58.7512668],[14.8351624,58.7501666],[14.8342192,58.7510238],[14.8330066,58.7505161],[14.8316901,58.7511459],[14.8304783,58.750765],[14.8307919,58.7510908],[14.8298856,58.7515695]],[[14.8300377,58.7447528],[14.8300723,58.7450104],[14.8301993,58.7449445],[14.8300377,58.7447528]],[[14.8302069,58.7498761],[14.831327,58.750571],[14.8339251,58.7495826],[14.830946,58.7488158],[14.8306457,58.7494988],[14.8317081,58.7496605],[14.8302069,58.7498761]],[[14.8304931,58.7484787],[14.8303314,58.7487243],[14.8305162,58.7487962],[14.8304931,58.7484787]],[[14.8311458,58.7779605],[14.8320288,58.7783416],[14.8313596,58.7791341],[14.8334498,58.7795954],[14.8351434,58.7810539],[14.8421783,58.7839881],[14.8464309,58.7867036],[14.8503841,58.7879868],[14.8498044,58.7881984],[14.8521315,58.789565],[14.8517636,58.7897838],[14.8524788,58.7904173],[14.8517069,58.7906143],[14.8519518,58.7913335],[14.8537927,58.7916478],[14.8538788,58.7909528],[14.8546881,58.7914475],[14.8556261,58.7906566],[14.8570227,58.7912258],[14.8584839,58.790462],[14.8612726,58.7907376],[14.861293,58.7914657],[14.8633972,58.791318],[14.8631626,58.7905186],[14.8611917,58.790576],[14.8622656,58.78987],[14.8618787,58.7888211],[14.8595289,58.7885955],[14.8607765,58.7869443],[14.8596073,58.7868981],[14.8578518,58.7856667],[14.8576661,58.7847249],[14.8547745,58.7834969],[14.8544133,58.7831772],[14.8550547,58.7819897],[14.853181,58.7804147],[14.8494167,58.7783976],[14.8480657,58.7784336],[14.8471866,58.7759199],[14.8438625,58.7760932],[14.8427424,58.7755784],[14.8420265,58.7741896],[14.8396016,58.7737945],[14.8397402,58.7732618],[14.8405316,58.7732928],[14.8398804,58.7721898],[14.8412914,58.7720271],[14.8412759,58.7709809],[14.8388741,58.7693345],[14.8354864,58.7687054],[14.835416,58.7693369],[14.8364091,58.7695374],[14.8382566,58.7716508],[14.8373271,58.7723003],[14.8356816,58.7711509],[14.8352428,58.7719291],[14.8364148,58.7720938],[14.8354449,58.7725428],[14.837814,58.7729095],[14.8379102,58.7738478],[14.8346391,58.7735929],[14.8328293,58.774474],[14.8320105,58.7750789],[14.8311458,58.7779605]],[[14.8314401,58.7469883],[14.8323176,58.7476054],[14.8321098,58.7483782],[14.8330797,58.7476173],[14.8341421,58.7483662],[14.8348465,58.7477252],[14.8336571,58.7468984],[14.8314401,58.7469883]],[[14.8329303,58.7710964],[14.8324684,58.7711384],[14.8329534,58.771318],[14.8329303,58.7710964]],[[14.8331728,58.7716532],[14.8341197,58.7719465],[14.8344661,58.7714556],[14.8333114,58.7711623],[14.8331728,58.7716532]],[[14.8342576,58.7820033],[14.8335554,58.7819102],[14.8343229,58.7823333],[14.8342576,58.7820033]],[[14.8347193,58.749581],[14.8347078,58.7499224],[14.8349157,58.7497906],[14.8347193,58.749581]],[[14.8347965,58.7824349],[14.8354497,58.7828496],[14.8357926,58.7828242],[14.8355966,58.7825449],[14.8347965,58.7824349]],[[14.8364122,58.7506318],[14.83647,58.7507486],[14.8366143,58.7506737],[14.8364122,58.7506318]],[[14.8375778,58.7572046],[14.8395303,58.757384],[14.8393211,58.7567742],[14.8399863,58.7564535],[14.8424666,58.7582229],[14.8425396,58.7576915],[14.8440745,58.7580478],[14.8444422,58.757122],[14.845163,58.7570872],[14.8466632,58.7580958],[14.8461771,58.7582523],[14.8466136,58.7589255],[14.8476103,58.7589434],[14.8469733,58.7609299],[14.846373,58.7611473],[14.8475852,58.7620774],[14.8505774,58.7629858],[14.8529996,58.7628815],[14.8563857,58.7646418],[14.8560253,58.7652155],[14.8574333,58.7662716],[14.8555056,58.766063],[14.8541707,58.7669023],[14.8546423,58.7671668],[14.8526727,58.7674276],[14.8521447,58.7679491],[14.8526912,58.7681801],[14.8513313,58.7684364],[14.8509294,58.7703522],[14.8493096,58.7712132],[14.8500828,58.7720296],[14.8489178,58.7735026],[14.8499077,58.7741845],[14.8505103,58.7731637],[14.8516753,58.7729421],[14.8524932,58.7738353],[14.8595287,58.7758532],[14.8596125,58.7770132],[14.8578356,58.7769177],[14.8574519,58.7774565],[14.8579695,58.7784845],[14.860283,58.7799371],[14.8618922,58.780176],[14.8624622,58.7789683],[14.8656772,58.779386],[14.8674967,58.7806086],[14.8664299,58.7812967],[14.8669929,58.7818588],[14.8681901,58.7809711],[14.8718949,58.7818317],[14.8729499,58.7810787],[14.8717594,58.7801664],[14.8694459,58.7799628],[14.8695947,58.7791249],[14.8705322,58.7790065],[14.8699681,58.7781818],[14.8682079,58.778363],[14.8666551,58.7777578],[14.8664121,58.7768393],[14.8677634,58.7756626],[14.8668746,58.7752434],[14.8669276,58.773753],[14.8660862,58.7730326],[14.8686939,58.7714028],[14.8682039,58.7705387],[14.8663181,58.7700868],[14.866184,58.769235],[14.8677932,58.7686266],[14.8736307,58.76937],[14.8751123,58.7687984],[14.8755272,58.769499],[14.8773918,58.7696532],[14.878609,58.769075],[14.8790238,58.7676246],[14.8795691,58.7677414],[14.8768154,58.7663928],[14.8786902,58.7663147],[14.8749486,58.7646165],[14.87467,58.7638574],[14.873384,58.7635777],[14.8728802,58.7640664],[14.8705551,58.7631483],[14.870152,58.7615863],[14.8687901,58.7617775],[14.8675245,58.7610733],[14.8654627,58.7584479],[14.8627478,58.7588585],[14.8635518,58.7598476],[14.8630908,58.7599128],[14.8622024,58.7588608],[14.8618252,58.7595781],[14.8627103,58.7601368],[14.8622778,58.7601692],[14.8583469,58.7590695],[14.8604674,58.7579914],[14.8563689,58.7562308],[14.8552184,58.7572787],[14.8562432,58.7581827],[14.8544663,58.7576132],[14.854592,58.7586131],[14.8534941,58.7588913],[14.8528068,58.757735],[14.8478031,58.7561352],[14.8480126,58.7555048],[14.8468728,58.7544919],[14.8477193,58.754431],[14.8474762,58.7540963],[14.8452803,58.7529398],[14.8446768,58.7531963],[14.8443332,58.7523094],[14.843537,58.7523268],[14.8437968,58.7528702],[14.8431011,58.7527398],[14.8428581,58.7522485],[14.8406202,58.7528441],[14.8402347,58.7537137],[14.8407059,58.7541505],[14.8382591,58.7557698],[14.8386003,58.756896],[14.8375778,58.7572046]],[[14.8383959,58.7584328],[14.8387277,58.7587832],[14.839676,58.759066],[14.8390952,58.758273],[14.8383959,58.7584328]],[[14.8397234,58.7623032],[14.8389844,58.7625188],[14.839989,58.7626146],[14.8397234,58.7623032]],[[14.8391676,58.7649097],[14.8392166,58.7651065],[14.8393473,58.765007],[14.8391676,58.7649097]],[[14.8394289,58.7647594],[14.8394085,58.764916],[14.839482,58.7648271],[14.8394289,58.7647594]],[[14.8399687,58.7508504],[14.8401939,58.7514195],[14.8405519,58.7512099],[14.8399687,58.7508504]],[[14.8406674,58.7520275],[14.8405172,58.7524258],[14.840754,58.7522881],[14.8406674,58.7520275]],[[14.8403084,58.7655845],[14.8429696,58.7680787],[14.8436126,58.7681043],[14.8446208,58.7662526],[14.845582,58.7660723],[14.8420385,58.7647076],[14.8403084,58.7655845]],[[14.8413717,58.7514674],[14.8409214,58.7520604],[14.8423706,58.7515872],[14.8413717,58.7514674]],[[14.8408479,58.7690752],[14.845257,58.7716406],[14.8459347,58.7713697],[14.8458857,58.7719581],[14.8474339,58.7727558],[14.8485638,58.7721655],[14.8473227,58.7714035],[14.84778,58.7708109],[14.8471143,58.7679281],[14.8464381,58.7677337],[14.8461397,58.769096],[14.8445934,58.7696209],[14.8430837,58.7687417],[14.8408479,58.7690752]],[[14.8412938,58.7605187],[14.8411668,58.7606325],[14.8417788,58.7607702],[14.8412938,58.7605187]],[[14.8413914,58.7681251],[14.8413452,58.7684724],[14.841657,58.7683766],[14.8413914,58.7681251]],[[14.8412333,58.5564595],[14.8417948,58.5568679],[14.8423484,58.5568514],[14.8420004,58.5565915],[14.8412333,58.5564595]],[[14.8434401,58.7524433],[14.8434483,58.7526635],[14.8436197,58.7526466],[14.8434401,58.7524433]],[[14.8438838,58.7591582],[14.8443817,58.7595147],[14.8445476,58.759484],[14.8444409,58.7590475],[14.8438838,58.7591582]],[[14.8453911,58.7510103],[14.8456447,58.7513802],[14.8463142,58.7513378],[14.8453911,58.7510103]],[[14.8453299,58.7629387],[14.8475701,58.7644753],[14.848471,58.7642848],[14.8482221,58.7630063],[14.8453299,58.7629387]],[[14.8462475,58.7665233],[14.8475235,58.7670682],[14.8469057,58.7674813],[14.8479218,58.7679453],[14.8476562,58.7667299],[14.8462475,58.7665233]],[[14.8465997,58.7527435],[14.847535,58.75304],[14.847483,58.7525728],[14.8496712,58.7518839],[14.847356,58.7511891],[14.8465997,58.7527435]],[[14.848322,58.7559425],[14.848771,58.7559891],[14.8485506,58.7557562],[14.848322,58.7559425]],[[14.8486744,58.5780727],[14.8494341,58.578482],[14.8513535,58.5782267],[14.8498156,58.5779102],[14.8486744,58.5780727]],[[14.849016,58.7552649],[14.8505755,58.7553877],[14.8527311,58.7568785],[14.8543396,58.7565312],[14.8534006,58.7562093],[14.8535231,58.7552522],[14.8523882,58.754511],[14.8528617,58.7546677],[14.8517676,58.7542612],[14.849612,58.7545026],[14.849857,58.7549176],[14.849016,58.7552649]],[[14.8497751,58.7525159],[14.849677,58.7527495],[14.8498502,58.7525907],[14.8497751,58.7525159]],[[14.8503877,58.7559087],[14.850502,58.7560653],[14.8504939,58.755951],[14.8503877,58.7559087]],[[14.8518656,58.7540621],[14.8516696,58.7541341],[14.8518738,58.7542019],[14.8518656,58.7540621]],[[14.8586164,58.800258],[14.8592206,58.8010214],[14.8598738,58.8007232],[14.8597963,58.800203],[14.8586164,58.800258]],[[14.8598674,58.7589676],[14.8611433,58.759285],[14.861432,58.7587281],[14.8608027,58.7585484],[14.8598674,58.7589676]],[[14.8601505,58.7950378],[14.8659587,58.7967877],[14.8674367,58.7963929],[14.8679574,58.7944935],[14.8659536,58.7934827],[14.8647002,58.7934489],[14.8642634,58.7940496],[14.8640715,58.7935504],[14.8609892,58.7930935],[14.8601505,58.7950378]],[[14.8613879,58.7042081],[14.8612833,58.7043781],[14.8614255,58.7043293],[14.8613879,58.7042081]],[[14.8612641,58.7989933],[14.8630982,58.8008695],[14.8663591,58.8017003],[14.8666865,58.7991736],[14.8638841,58.7984579],[14.8612641,58.7989933]],[[14.8620093,58.758788],[14.8620093,58.7589227],[14.8620729,58.7588299],[14.8620093,58.758788]],[[14.8645844,58.7577459],[14.8646536,58.7578956],[14.8646825,58.7577968],[14.8645844,58.7577459]],[[14.8651588,58.7849673],[14.8657906,58.7858024],[14.8667006,58.7855591],[14.8670774,58.7864302],[14.8681671,58.7865714],[14.8672281,58.7853578],[14.8651588,58.7849673]],[[14.8673673,58.8043446],[14.8673591,58.8047802],[14.8675714,58.804666],[14.8673673,58.8043446]],[[14.8673311,58.7739357],[14.8671474,58.7743044],[14.8676037,58.7740586],[14.8673311,58.7739357]],[[14.8679993,58.8027175],[14.8694935,58.8025271],[14.8697217,58.802255],[14.8681167,58.8022609],[14.8679993,58.8027175]],[[14.8685659,58.7917827],[14.8691889,58.7936685],[14.8710005,58.7939742],[14.8722793,58.7932607],[14.8718448,58.7931758],[14.8721317,58.7923858],[14.8708693,58.7915066],[14.8685659,58.7917827]],[[14.8691012,58.5555947],[14.8783315,58.5566233],[14.8780226,58.5562627],[14.8788752,58.5556787],[14.8755064,58.5542626],[14.8700189,58.5549066],[14.8691012,58.5555947]],[[14.8699753,58.803022],[14.8704652,58.8039609],[14.8718451,58.8032927],[14.8708734,58.8025525],[14.8699753,58.803022]],[[14.870149,58.802255],[14.8703684,58.8024165],[14.8703222,58.802243],[14.870149,58.802255]],[[14.870561,58.7876481],[14.8704282,58.7879173],[14.8706995,58.7878605],[14.870561,58.7876481]],[[14.8709051,58.7896083],[14.8714094,58.7910319],[14.8719137,58.791092],[14.8719195,58.7899086],[14.8709051,58.7896083]],[[14.8709226,58.8014116],[14.8716386,58.8021772],[14.8725739,58.8021114],[14.8730589,58.8013338],[14.8722275,58.8005443],[14.8709226,58.8014116]],[[14.8716217,58.7827674],[14.8715463,58.7830367],[14.8718983,58.7829759],[14.8716217,58.7827674]],[[14.8726107,58.7828847],[14.8725353,58.7831714],[14.872837,58.7830454],[14.8726107,58.7828847]],[[14.8722827,58.79809],[14.8727908,58.798757],[14.873778,58.7987241],[14.8730332,58.7979404],[14.8722827,58.79809]],[[14.8724893,58.7884394],[14.8725355,58.7885905],[14.8726337,58.7885666],[14.8724893,58.7884394]],[[14.8732673,58.7882464],[14.8730387,58.7883395],[14.8734061,58.7884664],[14.8732673,58.7882464]],[[14.8737817,58.7888303],[14.8732837,58.7888303],[14.8738634,58.788936],[14.8737817,58.7888303]],[[14.873298,58.7817552],[14.8738428,58.7820506],[14.8740691,58.7817248],[14.873298,58.7817552]],[[14.8736131,58.8004964],[14.8739134,58.8007775],[14.873694,58.8002452],[14.8736131,58.8004964]],[[14.8740635,58.8011245],[14.8745715,58.8017286],[14.8752297,58.8018064],[14.8749641,58.8005622],[14.8740635,58.8011245]],[[14.8764628,58.7737267],[14.8769406,58.77397],[14.876949,58.7736659],[14.8764628,58.7737267]],[[14.8765718,58.7725579],[14.8775859,58.7731575],[14.8778206,58.7730793],[14.8778122,58.7727708],[14.8765718,58.7725579]],[[14.8776195,58.7741829],[14.8773345,58.7744523],[14.8780469,58.7747826],[14.8776195,58.7741829]],[[14.8774854,58.7734964],[14.8783403,58.7746783],[14.8793628,58.7746696],[14.8792119,58.77407],[14.8774854,58.7734964]],[[14.8780536,58.7666567],[14.8778692,58.7666306],[14.8780536,58.7667175],[14.8780536,58.7666567]],[[14.8784475,58.7666524],[14.8782715,58.766774],[14.8784559,58.7668392],[14.8784475,58.7666524]],[[14.8788582,58.7689513],[14.8797634,58.7691295],[14.8801908,58.7688687],[14.8795119,58.768495],[14.8788582,58.7689513]],[[14.8790963,58.7988751],[14.8816846,58.8006643],[14.8814886,58.7991331],[14.8824603,58.7987693],[14.8790963,58.7988751]],[[14.8797885,58.768269],[14.8797718,58.7684037],[14.8798472,58.7683472],[14.8797885,58.768269]],[[14.8797969,58.7694988],[14.88004,58.7696596],[14.88004,58.7694945],[14.8797969,58.7694988]],[[14.8802623,58.7876263],[14.8812296,58.788752],[14.8840986,58.7884716],[14.8826149,58.7873799],[14.8802623,58.7876263]],[[14.8805931,58.7666741],[14.8807692,58.7672999],[14.8810709,58.7672695],[14.8805931,58.7666741]],[[14.8804926,58.7686688],[14.8811631,58.7692294],[14.8818504,58.7688166],[14.8816073,58.7682386],[14.8804926,58.7686688]],[[14.8808613,58.7675911],[14.8807105,58.7677301],[14.8809284,58.7676649],[14.8808613,58.7675911]],[[14.8814079,58.7720191],[14.8807122,58.7723189],[14.8815084,58.7724319],[14.8814079,58.7720191]],[[14.8810699,58.7979038],[14.8816659,58.7983099],[14.8822457,58.798293],[14.8816904,58.7978361],[14.8810699,58.7979038]],[[14.8813616,58.7825753],[14.8816813,58.7835992],[14.8833863,58.7838498],[14.8836322,58.7831573],[14.8846569,58.783323],[14.8848618,58.7840368],[14.8856488,58.7838668],[14.8859193,58.7826688],[14.8843946,58.7818191],[14.8833781,58.7824691],[14.8827715,58.7816109],[14.8813616,58.7825753]],[[14.8819517,58.8010381],[14.8820497,58.8011819],[14.8820987,58.8010804],[14.8819517,58.8010381]],[[14.8824416,58.7968844],[14.8831602,58.7975696],[14.8837317,58.7967998],[14.8830948,58.7962668],[14.8824416,58.7968844]],[[14.8826458,58.8007166],[14.8824988,58.8007801],[14.8826213,58.8008477],[14.8826458,58.8007166]],[[14.8830295,58.7960383],[14.8828744,58.7961695],[14.8831357,58.7961356],[14.8830295,58.7960383]],[[14.8828936,58.7858889],[14.8834428,58.7863689],[14.885197,58.7862372],[14.8841724,58.7853451],[14.8828936,58.7858889]],[[14.8831931,58.7710022],[14.8830171,58.7712717],[14.8832937,58.7711456],[14.8831931,58.7710022]],[[14.8829445,58.7716331],[14.8852795,58.7734151],[14.8868797,58.7734151],[14.8858011,58.7719834],[14.8835253,58.7713012],[14.8829445,58.7716331]],[[14.8830202,58.7931821],[14.8833448,58.7939509],[14.8844113,58.7938908],[14.8847359,58.7925094],[14.8841563,58.792197],[14.8830202,58.7931821]],[[14.8835063,58.77806],[14.8863917,58.7786633],[14.8867278,58.7780515],[14.8852195,58.7769212],[14.8835063,58.77806]],[[14.8846625,58.8018755],[14.8847217,58.8021303],[14.884783,58.8019855],[14.8846625,58.8018755]],[[14.8851627,58.7712021],[14.8851543,58.7714064],[14.8852633,58.7713195],[14.8851627,58.7712021]],[[14.8865016,58.7905123],[14.886177,58.7912151],[14.8868494,58.7909748],[14.8865016,58.7905123]],[[14.8863582,58.7696174],[14.8873064,58.7707973],[14.8892977,58.7710493],[14.8896178,58.7706068],[14.8878991,58.7684435],[14.8868797,58.7683268],[14.8872708,58.7686402],[14.8865952,58.7686341],[14.8869034,58.7692978],[14.8863582,58.7696174]],[[14.886981,58.7680062],[14.8874878,58.7682398],[14.887707,58.7682075],[14.8874641,58.7680016],[14.886981,58.7680062]],[[14.8874704,58.7735268],[14.8897936,58.7749585],[14.8904218,58.7741044],[14.8887861,58.7726665],[14.8874704,58.7735268]],[[14.8878279,58.7681485],[14.8878279,58.7682899],[14.887982,58.7682284],[14.8878279,58.7681485]],[[14.8889512,58.7914587],[14.8890439,58.791744],[14.8891656,58.7915848],[14.8889512,58.7914587]],[[14.889002,58.7967377],[14.8894193,58.7977347],[14.8915523,58.798047],[14.8917378,58.797038],[14.8907177,58.7958128],[14.889002,58.7967377]],[[14.8892236,58.7909481],[14.8893801,58.7911824],[14.8896583,58.7909391],[14.8892236,58.7909481]],[[14.8895058,58.7641598],[14.8903592,58.7647068],[14.8900036,58.7652784],[14.8922557,58.765555],[14.8919119,58.7649834],[14.8923386,58.764756],[14.8908333,58.7645716],[14.8911059,58.7641475],[14.8905844,58.7638463],[14.8895058,58.7641598]],[[14.8903699,58.7950801],[14.8906481,58.7955245],[14.8906713,58.795032],[14.8903699,58.7950801]],[[14.8910602,58.7708744],[14.8915766,58.7719326],[14.8939128,58.7724936],[14.8930521,58.7713079],[14.8918143,58.7713121],[14.8924209,58.7707129],[14.8934784,58.7709254],[14.892839,58.7701264],[14.8910602,58.7708744]],[[14.8915479,58.7745222],[14.8927095,58.7753026],[14.8931954,58.7747803],[14.8926265,58.7740183],[14.8915479,58.7745222]],[[14.8915523,58.7958008],[14.8921552,58.7961251],[14.892758,58.7955005],[14.8921783,58.7951522],[14.8915523,58.7958008]],[[14.8919884,58.769138],[14.8925573,58.7696727],[14.8926996,58.769304],[14.8919884,58.769138]],[[14.8921552,58.7945996],[14.8927116,58.7947678],[14.8937549,58.7941671],[14.8930826,58.7935185],[14.8921552,58.7945996]],[[14.8924388,58.7687017],[14.8922254,58.7688369],[14.8924151,58.7688061],[14.8924388,58.7687017]],[[14.8930024,58.7648727],[14.8945907,58.7652415],[14.8948989,58.7651063],[14.8943655,58.7645224],[14.8930024,58.7648727]],[[14.8930891,58.6519239],[14.8936899,58.6537937],[14.8961468,58.6566232],[14.897445,58.6571168],[14.8976917,58.6583836],[14.9008889,58.6585398],[14.8997731,58.6581939],[14.8995478,58.6566424],[14.8987968,58.6562462],[14.8994405,58.654438],[14.8961897,58.6514822],[14.8939259,58.6505054],[14.8930891,58.6519239]],[[14.8930942,58.7696336],[14.8943115,58.7700604],[14.8939927,58.7695495],[14.8951867,58.7697388],[14.8942767,58.7690596],[14.8930942,58.7696336]],[[14.8945432,58.7955966],[14.8948678,58.7958849],[14.8951692,58.7954765],[14.8945432,58.7955966]],[[14.8954001,58.7751305],[14.8960757,58.7755545],[14.8962654,58.7754193],[14.8961587,58.7749462],[14.8954001,58.7751305]],[[14.8956865,58.7758462],[14.8962899,58.7766717],[14.8978656,58.7767239],[14.8968766,58.77602],[14.8956865,58.7758462]],[[14.8958038,58.7969917],[14.8966385,58.7980186],[14.8992333,58.7982608],[14.8982962,58.8001806],[14.8996337,58.8006054],[14.8997894,58.8013443],[14.9027322,58.8014674],[14.9025519,58.8019897],[14.9039536,58.8024865],[14.9038798,58.803306],[14.9058938,58.8020449],[14.9054783,58.8011404],[14.9071013,58.8005672],[14.9061177,58.7985586],[14.9042487,58.7990045],[14.9031257,58.7979641],[14.9034454,58.7960828],[14.9009042,58.7936323],[14.8990265,58.793397],[14.8983795,58.7949319],[14.8958038,58.7969917]],[[14.8958115,58.7775809],[14.8964278,58.7778021],[14.8960485,58.7781892],[14.8986325,58.7795716],[14.8988933,58.7789633],[14.8971746,58.7775809],[14.8958115,58.7775809]],[[14.8970458,58.7758041],[14.8975673,58.7763233],[14.8981599,58.77652],[14.8977747,58.775712],[14.8970458,58.7758041]],[[14.8973229,58.7720304],[14.8982246,58.7726806],[14.899323,58.7719156],[14.8988967,58.7717966],[14.8973229,58.7720304]],[[14.8981422,58.7758226],[14.8978992,58.775755],[14.8980177,58.7759854],[14.8981125,58.77601],[14.8981422,58.7758226]],[[14.8979466,58.7754631],[14.897917,58.775586],[14.8980059,58.7755553],[14.8979466,58.7754631]],[[14.8978741,58.6477501],[14.8985769,58.6485009],[14.8995478,58.6485037],[14.8989899,58.6476328],[14.8978741,58.6477501]],[[14.8981272,58.7833669],[14.8988568,58.784327],[14.8999224,58.7841358],[14.8991847,58.7825894],[14.8981272,58.7833669]],[[14.8987408,58.7756843],[14.8984622,58.7764001],[14.8990845,58.7767504],[14.8987408,58.7756843]],[[14.8995112,58.7759454],[14.8990963,58.7761636],[14.8996001,58.7763141],[14.8995112,58.7759454]],[[14.8990958,58.7802737],[14.9007392,58.7813352],[14.9031805,58.780962],[14.9032276,58.7814568],[14.9011901,58.7821297],[14.9021738,58.7829199],[14.9047395,58.7833447],[14.9054245,58.7827366],[14.9088381,58.7824738],[14.9103949,58.7810416],[14.9099119,58.7808083],[14.9121743,58.780239],[14.9080259,58.7768466],[14.903836,58.7759312],[14.9039116,58.776827],[14.9049116,58.7766741],[14.9041155,58.7769773],[14.9044677,58.7773702],[14.9024443,58.7781273],[14.9021935,58.7788487],[14.9018869,58.7782547],[14.9003131,58.7784099],[14.9006901,58.7793042],[14.8990958,58.7802737]],[[14.8992402,58.7770801],[14.8998939,58.7778013],[14.9001789,58.7772365],[14.8992402,58.7770801]],[[14.8993571,58.776692],[14.8993216,58.7768272],[14.8993927,58.7767903],[14.8993571,58.776692]],[[14.8995645,58.7764892],[14.8997186,58.7766275],[14.8996653,58.77648],[14.8995645,58.7764892]],[[14.8998617,58.653705],[14.9000655,58.6542296],[14.9003552,58.6536966],[14.8998617,58.653705]],[[14.8998964,58.7763141],[14.9000861,58.7766213],[14.9001157,58.776437],[14.8998964,58.7763141]],[[14.9000446,58.7767074],[14.8999438,58.776821],[14.9000327,58.7768241],[14.9000446,58.7767074]],[[14.9001232,58.7734352],[14.9020117,58.7743422],[14.9042855,58.7737391],[14.9019707,58.7726848],[14.9001232,58.7734352]],[[14.9001765,58.784429],[14.9006766,58.7849727],[14.9019471,58.7849897],[14.9016848,58.7839786],[14.9006438,58.7836897],[14.9001765,58.784429]],[[14.9005477,58.7755769],[14.9015535,58.7763328],[14.9017714,58.776272],[14.9014696,58.7756464],[14.9005477,58.7755769]],[[14.9009479,58.6588408],[14.9016131,58.6598843],[14.90348,58.659103],[14.9039735,58.6608552],[14.9068381,58.6602693],[14.90348,58.658372],[14.9009479,58.6588408]],[[14.9011009,58.7763068],[14.9014026,58.777028],[14.9021066,58.7763242],[14.9014529,58.7764284],[14.9011009,58.7763068]],[[14.9019135,58.6578167],[14.9016614,58.6580623],[14.9020959,58.6579367],[14.9019135,58.6578167]],[[14.9025579,58.7943683],[14.9022219,58.7944703],[14.9025907,58.7945849],[14.9025579,58.7943683]],[[14.9029678,58.7951116],[14.9032137,58.7956679],[14.903476,58.7956254],[14.9034023,58.7953961],[14.9029678,58.7951116]],[[14.9040832,58.7840919],[14.9037389,58.7842279],[14.9040996,58.7842661],[14.9040832,58.7840919]],[[14.9041236,58.7969717],[14.9041974,58.7973327],[14.9044433,58.7972732],[14.9041236,58.7969717]],[[14.9044761,58.7966277],[14.9045499,58.7970991],[14.90464,58.7968103],[14.9044761,58.7966277]],[[14.9045843,58.7745593],[14.9043119,58.7748387],[14.9046191,58.7746524],[14.9045843,58.7745593]],[[14.9044269,58.7963219],[14.9044925,58.7965088],[14.9045663,58.7964069],[14.9044269,58.7963219]],[[14.905361,58.7752895],[14.9055001,58.7757222],[14.9064623,58.7757312],[14.905361,58.7752895]],[[14.9052144,58.7847079],[14.9062227,58.7853664],[14.9069522,58.7854981],[14.9067965,58.7849458],[14.9052144,58.7847079]],[[14.9063374,58.783888],[14.9070588,58.784402],[14.907149,58.7840664],[14.9063374,58.783888]],[[14.9064116,58.6620005],[14.9068783,58.6627761],[14.9073289,58.6619475],[14.9064116,58.6620005]],[[14.9071264,58.6604786],[14.9077541,58.6606098],[14.9078533,58.6605721],[14.9077192,58.6603573],[14.9071264,58.6604786]],[[14.9074756,58.7848353],[14.9075985,58.7849819],[14.9076108,58.7848714],[14.9074756,58.7848353]],[[14.9076524,58.7922427],[14.9079515,58.7936127],[14.9091958,58.7936207],[14.9091262,58.7947379],[14.9098218,58.7950983],[14.9110349,58.7951434],[14.911607,58.793855],[14.9124301,58.7936267],[14.9142758,58.7942473],[14.9153086,58.7938821],[14.9145873,58.7932535],[14.916791,58.7937837],[14.9156365,58.7929817],[14.91603,58.7925485],[14.914866,58.7930666],[14.9150833,58.7912764],[14.9124661,58.7887296],[14.9098821,58.7896007],[14.909897,58.7907081],[14.9087837,58.7903908],[14.9076524,58.7922427]],[[14.9082228,58.6607572],[14.9114387,58.6623318],[14.9102365,58.6632415],[14.9090235,58.6632246],[14.9095445,58.6642156],[14.9147585,58.6661477],[14.9132915,58.667368],[14.9170707,58.6664865],[14.916424,58.6658244],[14.9175106,58.6659146],[14.9171136,58.6646118],[14.9147426,58.6626868],[14.9082228,58.6607572]],[[14.9084113,58.787428],[14.9085261,58.7882096],[14.9086081,58.78753],[14.9090671,58.7876404],[14.9084113,58.787428]],[[14.9086297,58.8017183],[14.9093833,58.8019315],[14.9096615,58.8015802],[14.9090934,58.8010398],[14.9086297,58.8017183]],[[14.9091191,58.7847589],[14.9090453,58.7849606],[14.9091683,58.7848438],[14.9091191,58.7847589]],[[14.9104403,58.6653309],[14.9105824,58.6655736],[14.9106119,58.6653784],[14.9104403,58.6653309]],[[14.9135846,58.797827],[14.913944,58.7991121],[14.9153235,58.7991542],[14.9148366,58.7980492],[14.9135846,58.797827]],[[14.9140344,58.6705102],[14.9159871,58.6716636],[14.9168695,58.6712759],[14.9171994,58.6700235],[14.9153809,58.6687321],[14.9141095,58.6695214],[14.9140344,58.6705102]],[[14.9158438,58.7984241],[14.9164975,58.800497],[14.9187497,58.8012945],[14.9203031,58.8009762],[14.9198278,58.8006039],[14.9203379,58.8005979],[14.92031,58.7998965],[14.9192134,58.7988564],[14.9179962,58.798466],[14.9179266,58.7990666],[14.9167094,58.7981177],[14.9166973,58.7987628],[14.9158438,58.7984241]],[[14.9158259,58.7721896],[14.9165551,58.7722157],[14.9167395,58.7717681],[14.9165467,58.771729],[14.9158259,58.7721896]],[[14.9164456,58.6220898],[14.9179423,58.6221541],[14.9180442,58.6218384],[14.9164456,58.6220898]],[[14.9175589,58.6661274],[14.9179558,58.6662836],[14.9183743,58.6659823],[14.9180095,58.6656922],[14.9175589,58.6661274]],[[14.917675,58.6864339],[14.9195214,58.6876815],[14.9201916,58.6877193],[14.9183636,58.6862505],[14.917675,58.6864339]],[[14.9181836,58.8048432],[14.9180387,58.8050324],[14.9183285,58.8050204],[14.9181836,58.8048432]],[[14.9196203,58.7851936],[14.9206122,58.7865658],[14.9210384,58.7866507],[14.9208171,58.7851766],[14.9196203,58.7851936]],[[14.9204291,58.6700362],[14.9212552,58.670926],[14.9218882,58.6709288],[14.9216254,58.6697573],[14.9204291,58.6700362]],[[14.9208391,58.6316076],[14.9219227,58.6318812],[14.9219763,58.6307363],[14.921354,58.6306637],[14.9208391,58.6316076]],[[14.9211355,58.6858222],[14.9237116,58.6873382],[14.9241249,58.6871639],[14.9224336,58.686063],[14.9228065,58.6852374],[14.9211355,58.6858222]],[[14.9216273,58.8043824],[14.9230044,58.8057665],[14.9240782,58.805257],[14.9231929,58.8037583],[14.9216273,58.8043824]],[[14.9221427,58.6850205],[14.9220855,58.6851981],[14.9222352,58.6851623],[14.9221427,58.6850205]],[[14.9223895,58.6631717],[14.9224217,58.6634925],[14.9226738,58.663473],[14.9223895,58.6631717]],[[14.9223576,58.6700362],[14.9226365,58.6704407],[14.9227267,58.6702973],[14.9223576,58.6700362]],[[14.9229419,58.6371528],[14.9248838,58.6375158],[14.9252593,58.6372422],[14.9240792,58.6359634],[14.9230277,58.636131],[14.9229419,58.6371528]],[[14.9237032,58.6857069],[14.9243156,58.6861841],[14.9252047,58.686007],[14.924512,58.6852758],[14.9237032,58.6857069]],[[14.9240553,58.8175399],[14.9248553,58.8197246],[14.9273786,58.8216016],[14.9272863,58.8223709],[14.9253333,58.8233788],[14.9261477,58.825048],[14.9243322,58.8292328],[14.9246092,58.8302483],[14.9323019,58.8409874],[14.9392976,58.8444093],[14.9408174,58.8460258],[14.9404128,58.8467946],[14.9408174,58.8471992],[14.954057,58.8415412],[14.9544263,58.8409258],[14.9539647,58.840095],[14.9526108,58.8389565],[14.9492875,58.8371718],[14.9474105,58.8374179],[14.9471951,58.8367102],[14.9472874,58.8355409],[14.9483336,58.8348332],[14.9498836,58.8311784],[14.9499875,58.8282802],[14.9526231,58.8269295],[14.9543246,58.8247371],[14.9482333,58.8226282],[14.9485563,58.8221842],[14.944863,58.8205024],[14.9442719,58.8211093],[14.9459895,58.8224123],[14.942988,58.8240917],[14.9386516,58.8244854],[14.9352162,58.8238334],[14.9326177,58.8212058],[14.9328568,58.8173287],[14.9321794,58.8147673],[14.9288223,58.8130363],[14.9256619,58.8130123],[14.9252812,58.8134863],[14.9261969,58.8159302],[14.9240553,58.8175399]],[[14.9253398,58.6286643],[14.9251467,58.6293792],[14.9263161,58.6282258],[14.9253398,58.6286643]],[[14.9263698,58.6301974],[14.9267024,58.6305297],[14.9267453,58.6302588],[14.9263698,58.6301974]],[[14.9267131,58.6277846],[14.9271852,58.6280387],[14.9282473,58.627173],[14.9294275,58.6271506],[14.9284458,58.6266228],[14.9267131,58.6277846]],[[14.9269246,58.8074885],[14.927941,58.8076668],[14.9280558,58.8071998],[14.9274164,58.8068008],[14.9269246,58.8074885]],[[14.9283653,58.6192742],[14.9288642,58.6189586],[14.9290842,58.6186345],[14.9285209,58.6187993],[14.9283653,58.6192742]],[[14.9284726,58.6313702],[14.9293309,58.6315266],[14.9292505,58.632314],[14.9298513,58.631468],[14.9284726,58.6313702]],[[14.9310215,58.8097903],[14.9307756,58.8107158],[14.9315461,58.810911],[14.9310215,58.8097903]],[[14.9313412,58.8113737],[14.9317757,58.8121208],[14.9323659,58.8119086],[14.9320052,58.8112167],[14.9313412,58.8113737]],[[14.9459553,58.7145024],[14.9471784,58.7152769],[14.9489486,58.7149537],[14.9466741,58.7135776],[14.9459553,58.7145024]],[[14.9468136,58.7127975],[14.9477577,58.7130817],[14.948144,58.7128867],[14.9471784,58.7125579],[14.9468136,58.7127975]],[[14.9471261,58.711206],[14.9471046,58.7115348],[14.9473084,58.7112506],[14.9471261,58.711206]],[[14.9481399,58.7121895],[14.949443,58.712375],[14.9504359,58.7119666],[14.9488802,58.7114874],[14.9481399,58.7121895]],[[14.951778,58.5162225],[14.9522281,58.5168823],[14.9526874,58.5164186],[14.951778,58.5162225]],[[14.9655985,58.7628087],[14.9656116,58.7634115],[14.9662903,58.7630717],[14.9655985,58.7628087]],[[14.9688597,58.8493059],[14.9707885,58.8505924],[14.96954,58.8518478],[14.972039,58.8525589],[14.9738801,58.8520797],[14.9739745,58.8511915],[14.9732669,58.8504758],[14.9742776,58.8498654],[14.9738784,58.849138],[14.9723827,58.849538],[14.9722155,58.8483502],[14.9710364,58.8480362],[14.9688597,58.8493059]],[[14.972506,58.7504924],[14.9727026,58.75096],[14.972873,58.7506695],[14.972506,58.7504924]],[[14.9752527,58.5365646],[14.9763504,58.5370662],[14.9773934,58.5358692],[14.9761099,58.5357516],[14.9752527,58.5365646]],[[14.9770456,58.7496353],[14.9774908,58.7502656],[14.9785785,58.7500242],[14.9781855,58.7496882],[14.9770456,58.7496353]],[[14.9783438,58.7507635],[14.9784267,58.7509416],[14.9788358,58.7509289],[14.9783438,58.7507635]]]}}]}
