{"type":"FeatureCollection","source":"OpenStreetMap contributors","licence":"ODbL 1.0","retrieved":"2026-08-06","features":[{"type":"Feature","properties":{"name":"Jönköpings kommun","osmType":"relation","osmId":935495},"geometry":{"type":"MultiPolygon","coordinates":[[[[13.6365168,57.5940932],[13.6492901,57.5937403],[13.6600908,57.6061273],[13.6537386,57.6084036],[13.6571531,57.6060894],[13.6472699,57.6049661],[13.6365168,57.5940932]],[[13.647061,57.601367],[13.6470774,57.6021232],[13.6488427,57.6021972],[13.647061,57.601367]]],[[[13.6642423,57.6150482],[13.6687257,57.6113257],[13.6688735,57.5945045],[13.6791426,57.5952358],[13.6716195,57.5870228],[13.6786273,57.5844268],[13.6790809,57.5776468],[13.6865941,57.5763692],[13.6885722,57.5582871],[13.7188473,57.5592988],[13.7195167,57.5633989],[13.7298258,57.5697312],[13.7499778,57.5667029],[13.7515297,57.5603792],[13.7572867,57.5615092],[13.7758832,57.5552345],[13.7897367,57.5735944],[13.8133052,57.5825337],[13.8147132,57.5878429],[13.7996274,57.5909108],[13.807169,57.596544],[13.8001581,57.6087661],[13.8111368,57.6133527],[13.8402791,57.6151158],[13.853469,57.6228891],[13.9172642,57.6103058],[13.9194464,57.6167255],[13.926319,57.6199321],[13.9529602,57.623732],[13.9517553,57.627666],[13.9691305,57.658037],[13.9884561,57.6454243],[13.9955649,57.6362446],[14.0022812,57.6362553],[14.0011141,57.6324443],[14.0174274,57.6298248],[14.0294005,57.6179961],[14.0450849,57.6289199],[14.062911,57.6298675],[14.0929246,57.6166517],[14.1132239,57.6116674],[14.1395949,57.6161017],[14.1445595,57.6263558],[14.1971143,57.6444685],[14.2040984,57.6368441],[14.2087491,57.6101305],[14.2157367,57.6070681],[14.2151163,57.6020951],[14.2081296,57.6003348],[14.2167647,57.5900996],[14.2134825,57.5843499],[14.2171975,57.5737198],[14.229421,57.5659402],[14.2250269,57.5542154],[14.2299776,57.5475224],[14.2370274,57.547222],[14.2377282,57.5501613],[14.2475084,57.5524593],[14.2557418,57.5592087],[14.2561396,57.5634937],[14.2764593,57.5628704],[14.2831497,57.559712],[14.2842793,57.5531507],[14.2933218,57.5573927],[14.310538,57.5432967],[14.3462818,57.5392046],[14.3476187,57.5516651],[14.3370938,57.5718123],[14.337463,57.5869429],[14.3316556,57.5960608],[14.3608703,57.5990182],[14.3799006,57.6126853],[14.3677953,57.6155884],[14.3599542,57.6307857],[14.3869731,57.6398341],[14.383106,57.6499156],[14.3930289,57.6522674],[14.3943063,57.6543171],[14.3910892,57.656161],[14.3957089,57.6600426],[14.3952154,57.6661051],[14.413052,57.6621206],[14.425926,57.6642868],[14.4271922,57.6680093],[14.4216896,57.6693725],[14.4186727,57.6765638],[14.4229094,57.6843195],[14.4319466,57.6828106],[14.441967,57.6876335],[14.437731,57.6919745],[14.4517064,57.6973853],[14.4413075,57.7047826],[14.4487998,57.7096803],[14.4467194,57.7129589],[14.4343112,57.7169511],[14.4345258,57.7205948],[14.4551313,57.7230055],[14.4563519,57.7309452],[14.4994444,57.7233244],[14.5084118,57.7269367],[14.5153034,57.7409795],[14.5253731,57.7448128],[14.5301621,57.7424052],[14.540609,57.7458378],[14.5451013,57.7428033],[14.5451887,57.7470868],[14.5476405,57.7467601],[14.5547159,57.7406324],[14.5661536,57.7456676],[14.5700313,57.743748],[14.570034,57.736039],[14.5775244,57.7341139],[14.5844437,57.7386482],[14.6058134,57.7393553],[14.6031335,57.7440217],[14.6167473,57.7485951],[14.6253688,57.7479035],[14.6303228,57.7511508],[14.64656,57.7497277],[14.6535135,57.7533439],[14.6503394,57.7597713],[14.6361396,57.7656707],[14.6397166,57.7764836],[14.6371949,57.7799445],[14.6290573,57.7816785],[14.6314573,57.7879416],[14.6212299,57.8022002],[14.6211152,57.8123011],[14.6163653,57.8138684],[14.6138772,57.8214507],[14.6136054,57.8260502],[14.6194485,57.8308897],[14.6042414,57.8298319],[14.5985983,57.8351121],[14.6038804,57.8443349],[14.6046498,57.8542241],[14.6012196,57.8571323],[14.5912971,57.8553361],[14.5867355,57.8597192],[14.5858354,57.8624807],[14.5913335,57.8690032],[14.5743452,57.8677798],[14.5676453,57.8715713],[14.5437365,57.8734191],[14.5235565,57.858863],[14.5134805,57.8592636],[14.5012336,57.8540064],[14.4953752,57.8555818],[14.4944576,57.8646089],[14.4789635,57.874303],[14.4810505,57.8807991],[14.4770741,57.8855437],[14.4823148,57.894156],[14.4827719,57.8999571],[14.4797415,57.9006663],[14.4786043,57.9023471],[14.4815555,57.9019603],[14.4808259,57.9158756],[14.4847516,57.9193647],[14.4848072,57.9245105],[14.4961964,57.9297504],[14.4960725,57.9334406],[14.5035731,57.9390626],[14.5114643,57.9389456],[14.5131833,57.9422452],[14.5223601,57.9392627],[14.5398069,57.9401292],[14.5553102,57.9493115],[14.5751205,57.9474127],[14.5792346,57.9421007],[14.5842737,57.9425192],[14.5771973,57.9587154],[14.5817521,57.96522],[14.5770345,57.9718641],[14.5800935,57.9813848],[14.5771744,57.9882123],[14.5996153,57.999108],[14.6141149,58.0012829],[14.6148572,58.0110773],[14.6204477,58.0173902],[14.6178083,58.0221449],[14.6195776,58.024294],[14.6135696,58.0350937],[14.6079812,58.038377],[14.6060885,58.0458478],[14.6088577,58.0500761],[14.6229752,58.0516684],[14.6048653,58.0670316],[14.6042997,58.0813371],[14.589049,58.1028985],[14.5709616,58.107457],[14.5496436,58.1051368],[14.5435432,58.1112319],[14.4682736,58.1310943],[14.4177296,58.1910656],[14.3142617,58.1317828],[14.2371815,58.0277157],[14.2046341,57.9007373],[14.1362937,57.8867997],[14.1013023,57.8679667],[14.1050726,57.8655076],[14.1004898,57.8578871],[14.0798071,57.8565475],[14.0714759,57.8530079],[14.0730591,57.8554677],[14.0678836,57.8583829],[14.0594248,57.8587113],[14.0578913,57.8623676],[14.0477587,57.8649487],[14.0412243,57.8619887],[14.0426319,57.8585733],[14.0302483,57.8597342],[14.0209574,57.8500531],[14.0125972,57.8495266],[14.0149685,57.8452763],[14.0128689,57.8322877],[14.0173419,57.8256425],[14.010933,57.8046092],[13.9983502,57.8041744],[13.969939,57.8116108],[13.9650017,57.8186429],[13.9658178,57.8223188],[13.9530534,57.8245308],[13.9587276,57.8280756],[13.9597968,57.8327612],[13.9417718,57.8382541],[13.9451668,57.8454172],[13.9213294,57.8561784],[13.9054422,57.846862],[13.9015677,57.8411326],[13.8884223,57.8379484],[13.8642526,57.8509936],[13.8631126,57.84636],[13.8657424,57.8446355],[13.8588834,57.836917],[13.8608638,57.8329754],[13.8544267,57.8293933],[13.8108644,57.8346994],[13.8033942,57.8287444],[13.7880827,57.836872],[13.783176,57.8461917],[13.7663916,57.8436918],[13.7314573,57.8452853],[13.7367851,57.8432842],[13.7376369,57.8170596],[13.7444077,57.8162538],[13.7464527,57.8116392],[13.7417245,57.8073373],[13.744304,57.8046214],[13.7425577,57.7984499],[13.74623,57.7842654],[13.7504526,57.7812714],[13.7472009,57.7774779],[13.7538775,57.7734369],[13.7425002,57.7581772],[13.7316607,57.7525306],[13.7143008,57.7306403],[13.7162889,57.7234612],[13.7296923,57.7183827],[13.694201,57.7057438],[13.7224949,57.6916927],[13.7248155,57.6694304],[13.7076308,57.6382854],[13.6856123,57.6323578],[13.6824746,57.6258353],[13.6715357,57.6275304],[13.669219,57.6186315],[13.6712033,57.6171386],[13.6642423,57.6150482]]]]}},{"type":"Feature","properties":{"name":"Habo kommun","osmType":"relation","osmId":935405},"geometry":{"type":"Polygon","coordinates":[[[13.8559752,57.8940715],[13.8649794,57.8844924],[13.8607111,57.8767645],[13.8634661,57.8740908],[13.8618401,57.8720927],[13.870712,57.86425],[13.8658337,57.8597919],[13.8642526,57.8509936],[13.8884223,57.8379484],[13.9015677,57.8411326],[13.9054422,57.846862],[13.9213294,57.8561784],[13.9451668,57.8454172],[13.9417718,57.8382541],[13.9597968,57.8327612],[13.9587276,57.8280756],[13.9530534,57.8245308],[13.9658178,57.8223188],[13.9650017,57.8186429],[13.969939,57.8116108],[13.9983502,57.8041744],[14.010933,57.8046092],[14.0173419,57.8256425],[14.0128689,57.8322877],[14.0149685,57.8452763],[14.0125972,57.8495266],[14.0209574,57.8500531],[14.0302483,57.8597342],[14.0426319,57.8585733],[14.0412243,57.8619887],[14.0477587,57.8649487],[14.0578913,57.8623676],[14.0594248,57.8587113],[14.0678836,57.8583829],[14.0730591,57.8554677],[14.0714759,57.8530079],[14.0798071,57.8565475],[14.1004898,57.8578871],[14.1050726,57.8655076],[14.1013023,57.8679667],[14.1362937,57.8867997],[14.2046341,57.9007373],[14.2371815,58.0277157],[14.3142617,58.1317828],[14.2056771,58.1353004],[14.1686612,58.1283453],[14.1519242,58.1314845],[14.14715,58.1341082],[14.1464753,58.1388197],[14.1395623,58.1385495],[14.1287746,58.1463282],[14.1186272,58.1211772],[14.122025,58.1001013],[14.1169883,58.0886187],[14.1076611,58.0816958],[14.1168542,58.0782217],[14.1163054,58.0753385],[14.1072627,58.06371],[14.0645855,58.0389197],[14.0695346,58.0250635],[14.0617718,58.0282642],[14.0588289,58.0254185],[14.0638888,58.0241944],[13.9930062,58.0097228],[13.9447149,58.0066581],[13.9299426,58.0087861],[13.9284119,57.9976928],[13.9174448,57.9849657],[13.9186026,57.9796791],[13.9133651,57.9782806],[13.9062411,57.9681856],[13.9104956,57.9571576],[13.8993574,57.9525103],[13.9107874,57.9435884],[13.902805,57.9358882],[13.9036231,57.9333432],[13.9191206,57.928938],[13.9216592,57.9248266],[13.9095338,57.9222951],[13.9070531,57.9158692],[13.9013139,57.9164919],[13.8998089,57.9124814],[13.9027667,57.9087666],[13.8946071,57.9050247],[13.8921685,57.9002826],[13.8968354,57.8952756],[13.8942284,57.8933076],[13.8674846,57.9014631],[13.8559752,57.8940715]]]}},{"type":"Feature","properties":{"name":"Hjo kommun","osmType":"relation","osmId":935672},"geometry":{"type":"MultiPolygon","coordinates":[[[[13.9825841,58.2795452],[14.0240586,58.2771933],[14.0155905,58.2668259],[14.0267412,58.2585855],[14.0446886,58.2570706],[14.0517552,58.2637791],[14.0590774,58.2585634],[14.0631727,58.2592518],[14.0626352,58.2561423],[14.0774191,58.2512214],[14.0849808,58.2560825],[14.0882381,58.2540038],[14.0848221,58.2498726],[14.087561,58.2484348],[14.1065083,58.2508478],[14.1057773,58.2584561],[14.1092518,58.2610056],[14.1357273,58.2579102],[14.1361094,58.2601156],[14.1487586,58.2563671],[14.1507909,58.2445748],[14.1383392,58.2401757],[14.1437351,58.2333269],[14.1349749,58.2321509],[14.1304703,58.2238221],[14.1229757,58.2219358],[14.1287522,58.2126857],[14.1334596,58.2131484],[14.136439,58.2085379],[14.1219677,58.202969],[14.1154011,58.2061744],[14.1142793,58.2018607],[14.1104252,58.2012557],[14.1208613,58.1822124],[14.1137421,58.1654175],[14.1146499,58.1565623],[14.1395623,58.1385495],[14.1464753,58.1388197],[14.14715,58.1341082],[14.1519242,58.1314845],[14.1686612,58.1283453],[14.2056771,58.1353004],[14.2248662,58.1355613],[14.3142617,58.1317828],[14.4177376,58.1910562],[14.5204269,58.3559613],[14.5425147,58.3796621],[14.3997289,58.4057398],[14.3698364,58.4035959],[14.3586994,58.407621],[14.3436191,58.4056455],[14.3346503,58.400874],[14.3307992,58.4029742],[14.3304605,58.408349],[14.3105023,58.4070435],[14.3006821,58.4015794],[14.3011504,58.3979926],[14.2684278,58.39795],[14.2616902,58.3937491],[14.2669197,58.3850273],[14.2608633,58.3830303],[14.2650211,58.3812274],[14.2609761,58.3700307],[14.2408796,58.3639987],[14.2044956,58.3638023],[14.1994655,58.3615049],[14.1986137,58.3549819],[14.1927843,58.3550171],[14.1918344,58.3514832],[14.167873,58.3581801],[14.1626452,58.3548971],[14.1641462,58.3513706],[14.1569567,58.351575],[14.1575744,58.3551375],[14.1475339,58.356639],[14.1516778,58.3603541],[14.1478432,58.3630258],[14.1373524,58.3597451],[14.1371057,58.3659664],[14.1319066,58.3644163],[14.1277162,58.3599973],[14.1305472,58.3578743],[14.1145324,58.3502966],[14.1226162,58.3454855],[14.1143868,58.3353345],[14.1078381,58.3356468],[14.1061685,58.3400556],[14.0911977,58.3393492],[14.0884139,58.3282762],[14.0934554,58.3264045],[14.0873468,58.3235568],[14.0859563,58.3168352],[14.0570032,58.3097914],[14.0388568,58.3179697],[14.0359507,58.3139502],[14.0244567,58.3122793],[14.027429,58.3099988],[14.026748,58.305868],[14.0182059,58.3007755],[14.0121498,58.3022563],[14.0009682,58.2976773],[13.9944895,58.2858553],[13.9825841,58.2795452]],[[14.0292829,58.3097841],[14.0324545,58.3101277],[14.0330753,58.3087365],[14.02985,58.3074944],[14.0292829,58.3097841]],[[14.0540609,58.2739466],[14.0569459,58.2747649],[14.0588984,58.2744902],[14.0562913,58.2716161],[14.0540609,58.2739466]],[[14.0568424,58.2690627],[14.0566013,58.2710445],[14.058524,58.2696897],[14.0568424,58.2690627]]],[[[14.1505397,58.3735949],[14.1474895,58.3703419],[14.1517365,58.3731098],[14.1505397,58.3735949]]],[[[14.2911234,58.403542],[14.2903462,58.4023133],[14.2921545,58.4029147],[14.2911234,58.403542]]]]}},{"type":"Feature","properties":{"name":"Karlsborgs kommun","osmType":"relation","osmId":935617},"geometry":{"type":"Polygon","coordinates":[[[14.2507037,58.6239185],[14.2718218,58.6160817],[14.2948023,58.6130052],[14.3128711,58.6159692],[14.3167346,58.6192515],[14.3233531,58.6177936],[14.3242693,58.6139221],[14.331266,58.61404],[14.3295321,58.6084497],[14.3369657,58.6088205],[14.3411063,58.5957526],[14.3386645,58.5932326],[14.343179,58.5911437],[14.344416,58.585523],[14.3373759,58.5432733],[14.3453033,58.5320105],[14.354341,58.5265397],[14.3507006,58.5230172],[14.3658086,58.4940138],[14.3953359,58.4917985],[14.3781225,58.4873036],[14.3685062,58.4695542],[14.3126527,58.4389274],[14.2916982,58.4181551],[14.2940129,58.4133273],[14.3071954,58.4104145],[14.3047744,58.4048334],[14.3304605,58.408349],[14.3319763,58.4010641],[14.3586994,58.407621],[14.3698364,58.4035959],[14.3997289,58.4057398],[14.5425147,58.3796621],[14.6734621,58.5100655],[14.778819,58.6461671],[14.7026714,58.6942094],[14.7034702,58.696315],[14.6989346,58.6966341],[14.6974226,58.7042579],[14.6891941,58.7125583],[14.6922315,58.7148951],[14.6904816,58.718107],[14.6957102,58.7210773],[14.6912292,58.7401166],[14.6216458,58.7373506],[14.6263628,58.6942615],[14.6147616,58.6935116],[14.5781978,58.6820609],[14.5367572,58.6775109],[14.5554245,58.7052726],[14.5459948,58.7187332],[14.5339676,58.712717],[14.5271508,58.7235023],[14.5163524,58.7236986],[14.511525,58.7200007],[14.5146972,58.719049],[14.5055939,58.7135907],[14.4768233,58.7133659],[14.4700972,58.7214744],[14.4753896,58.7365443],[14.4705065,58.7810334],[14.4379108,58.7936035],[14.4214424,58.794731],[14.3872013,58.7582258],[14.3863328,58.7472932],[14.3747296,58.7329006],[14.3634122,58.7258824],[14.2960864,58.7205785],[14.2523947,58.698344],[14.2578229,58.696261],[14.2609371,58.6881001],[14.2795188,58.6922645],[14.2917223,58.654033],[14.2586583,58.6323042],[14.2507037,58.6239185]]]}},{"type":"Feature","properties":{"name":"Askersunds kommun","osmType":"relation","osmId":935513},"geometry":{"type":"MultiPolygon","coordinates":[[[[14.6249598,58.8308609],[14.6267077,58.8291432],[14.6286559,58.8298352],[14.6275926,58.8313167],[14.6249598,58.8308609]]],[[[14.6267928,58.8330843],[14.63331,58.8311252],[14.6298631,58.8285338],[14.6335948,58.8190976],[14.6468977,58.8012457],[14.6770255,58.7860474],[14.6830151,58.7731775],[14.680394,58.7656807],[14.6820344,58.7599247],[14.6911936,58.7423033],[14.6924922,58.7262773],[14.6957102,58.7210773],[14.6904816,58.718107],[14.6922315,58.7148951],[14.6891941,58.7125583],[14.6974226,58.7042579],[14.6989346,58.6966341],[14.7034702,58.696315],[14.7026714,58.6942094],[14.778819,58.6461671],[14.8066491,58.6650511],[14.9292198,58.6968235],[14.955475,58.6929495],[14.9724565,58.6834029],[14.9751761,58.6870856],[15.0039362,58.695697],[15.0115826,58.7055792],[15.0345441,58.7042883],[15.0492292,58.7222189],[15.0536582,58.7382487],[15.0669471,58.7543584],[15.0836485,58.7667293],[15.0930658,58.7618884],[15.0980123,58.7657794],[15.0946922,58.7663148],[15.0963967,58.7688977],[15.1151019,58.7701974],[15.1218015,58.7834771],[15.1325163,58.7870485],[15.1190663,58.7908358],[15.1279256,58.7964462],[15.1381178,58.8206541],[15.1674252,58.8106627],[15.1982643,58.8147304],[15.2180945,58.8272659],[15.2215783,58.8352652],[15.2190135,58.8427457],[15.2469564,58.8383369],[15.2445228,58.8444719],[15.2424972,58.841541],[15.2405997,58.8430787],[15.2561699,58.849773],[15.2569364,58.8584881],[15.262819,58.8651377],[15.2754332,58.8632221],[15.2951819,58.8497873],[15.3252723,58.8592873],[15.3264198,58.8503181],[15.3475923,58.8292124],[15.339697,58.8660146],[15.3444782,58.869008],[15.3379471,58.8736679],[15.3355031,58.885207],[15.3207278,58.8928363],[15.3252066,58.9031024],[15.3332783,58.9062217],[15.3328677,58.917832],[15.3151637,58.9240422],[15.2923436,58.9396912],[15.2847539,58.9502085],[15.2615851,58.9471914],[15.2580466,58.956559],[15.2524672,58.9566854],[15.2182438,58.9793101],[15.2033623,58.9794788],[15.1858702,58.9738503],[15.1625037,58.975743],[15.1682811,58.9850491],[15.1641541,58.9995584],[15.0925812,59.0027177],[15.0963847,59.014901],[15.091677,59.0221418],[15.0425503,59.0262145],[15.000104,59.0147687],[14.9971735,59.0176593],[14.9603914,59.0102917],[14.9570724,59.001028],[14.8862216,59.0114704],[14.8734144,59.0059113],[14.8718299,59.0010644],[14.8549369,58.9882634],[14.846188,58.9902171],[14.8091547,58.9827286],[14.7741133,58.979823],[14.7670857,58.9844548],[14.7620283,58.9835253],[14.7589848,58.9788576],[14.7254389,58.9751607],[14.7363679,58.9671081],[14.732777,58.9656614],[14.7436752,58.9545421],[14.7510465,58.9560582],[14.7650013,58.950974],[14.7694474,58.941882],[14.7753307,58.9453795],[14.7855731,58.9398911],[14.7334753,58.910813],[14.7331296,58.9063659],[14.7256291,58.9065995],[14.7020673,58.8974835],[14.6918837,58.8887421],[14.6465948,58.8896295],[14.6477829,58.8795763],[14.6528667,58.8748426],[14.6457911,58.8626263],[14.646617,58.8490833],[14.6384599,58.8380623],[14.6267928,58.8330843]]],[[[14.7206298,58.9096014],[14.7207029,58.9091505],[14.7210251,58.9094274],[14.7206298,58.9096014]]]]}},{"type":"Feature","properties":{"name":"Motala kommun","osmType":"relation","osmId":935668},"geometry":{"type":"MultiPolygon","coordinates":[[[[14.6734621,58.5100655],[14.7527205,58.4932439],[14.9389656,58.5358656],[14.9707961,58.517869],[14.9812138,58.5058693],[14.9767337,58.5018906],[14.9855189,58.5025383],[14.9876698,58.4940988],[14.9969629,58.496513],[15.002875,58.494293],[14.9906331,58.4897768],[14.9886935,58.4849717],[14.9749647,58.4810183],[14.9767018,58.4771027],[14.9829272,58.4757116],[15.0076703,58.4803583],[15.0155628,58.4752713],[15.0138968,58.470611],[15.0060744,58.4653583],[14.9823742,58.4545094],[14.9936464,58.4538994],[14.9989378,58.4492928],[14.9877795,58.4420488],[14.9735398,58.4412901],[14.9619543,58.4342088],[14.9973963,58.4246176],[15.0033812,58.4176689],[15.0370395,58.4225484],[15.0391425,58.4257651],[15.0552965,58.4232891],[15.0471479,58.4285252],[15.0615369,58.4332585],[15.0780113,58.4262709],[15.094452,58.4313863],[15.1034782,58.4275498],[15.1160564,58.4320475],[15.1326831,58.4461389],[15.1416304,58.4631203],[15.1527183,58.4678478],[15.1521547,58.4733335],[15.1561623,58.4730578],[15.1595137,58.4666908],[15.196919,58.4639374],[15.201694,58.4618],[15.2028319,58.4561029],[15.2191894,58.4582263],[15.2192597,58.4612344],[15.214599,58.4624187],[15.2175828,58.4644592],[15.24503,58.4685274],[15.2488518,58.4671152],[15.2463343,58.4627525],[15.2534412,58.4622861],[15.2575781,58.4557404],[15.2646542,58.4542484],[15.2658867,58.4479543],[15.2613824,58.4476129],[15.2565634,58.4410747],[15.2649025,58.438454],[15.2727564,58.4417083],[15.2817764,58.4377318],[15.312942,58.435432],[15.3183655,58.4376482],[15.3216114,58.4488286],[15.353681,58.453066],[15.3589687,58.4599711],[15.3698685,58.4657994],[15.3928902,58.4651145],[15.3896571,58.4710552],[15.3586717,58.4707806],[15.3574824,58.4730209],[15.3669633,58.47399],[15.3662661,58.4771708],[15.3865877,58.4774369],[15.3785814,58.4840561],[15.3653748,58.4830547],[15.366427,58.4879467],[15.3637633,58.4898399],[15.3678879,58.4959564],[15.3729359,58.4958627],[15.3679395,58.4961065],[15.3692944,58.4998992],[15.3755073,58.5013818],[15.3667051,58.5128521],[15.3711967,58.5181012],[15.3704041,58.5111041],[15.3773123,58.5114741],[15.3801634,58.522374],[15.3780163,58.5375647],[15.3837014,58.5467587],[15.3723647,58.5476429],[15.3787761,58.5664651],[15.3747217,58.5684158],[15.3817662,58.5797096],[15.3743277,58.5900286],[15.3798957,58.5909352],[15.3839045,58.6041014],[15.3907607,58.6087731],[15.3712816,58.6179577],[15.3741923,58.6246496],[15.3723496,58.6286038],[15.3806516,58.6353947],[15.3996714,58.6415104],[15.3984662,58.646285],[15.4174911,58.6521915],[15.4361529,58.6400151],[15.4694267,58.6287328],[15.4700251,58.6317525],[15.4883184,58.6346871],[15.483793,58.6433092],[15.4772018,58.6474648],[15.4703391,58.6433127],[15.4644297,58.6506297],[15.4762847,58.6613951],[15.4752722,58.6705586],[15.47796,58.6767513],[15.4917606,58.6812999],[15.4794532,58.6973195],[15.4952326,58.7013027],[15.4891875,58.7072015],[15.4962479,58.7086803],[15.494573,58.7193576],[15.4991494,58.7318479],[15.4784753,58.7354147],[15.4699756,58.7527652],[15.4455791,58.7647023],[15.4485808,58.7666993],[15.4456882,58.7766503],[15.4487264,58.7771595],[15.4382198,58.7837221],[15.4450447,58.7869297],[15.4230546,58.7901651],[15.420979,58.7993243],[15.4110821,58.805556],[15.4135759,58.8069],[15.4144045,58.8206424],[15.4064804,58.8283064],[15.410742,58.8328252],[15.4028632,58.8419509],[15.3813954,58.846932],[15.3475923,58.8292124],[15.3264198,58.8503181],[15.3252723,58.8592873],[15.2951819,58.8497873],[15.2754332,58.8632221],[15.262819,58.8651377],[15.2569364,58.8584881],[15.2561699,58.849773],[15.2405997,58.8430787],[15.2424972,58.841541],[15.2445228,58.8444719],[15.2469564,58.8383369],[15.2190135,58.8427457],[15.2215783,58.8352652],[15.2180945,58.8272659],[15.1982643,58.8147304],[15.1674252,58.8106627],[15.1381178,58.8206541],[15.1279256,58.7964462],[15.1190663,58.7908358],[15.1325163,58.7870485],[15.1218015,58.7834771],[15.1151019,58.7701974],[15.0963967,58.7688977],[15.0946922,58.7663148],[15.0980123,58.7657794],[15.0930658,58.7618884],[15.0836485,58.7667293],[15.0669471,58.7543584],[15.0536582,58.7382487],[15.0492292,58.7222189],[15.0345441,58.7042883],[15.0115826,58.7055792],[15.0039362,58.695697],[14.9751761,58.6870856],[14.9724565,58.6834029],[14.955475,58.6929495],[14.9292198,58.6968235],[14.8066491,58.6650511],[14.778819,58.6461671],[14.6734621,58.5100655]]],[[[15.3804513,58.4880003],[15.3790051,58.4851577],[15.3808017,58.4845641],[15.3804513,58.4880003]]],[[[15.3937809,58.4648239],[15.3962382,58.4637441],[15.3970146,58.4644187],[15.3966248,58.4648346],[15.3937809,58.4648239]]]]}},{"type":"Feature","properties":{"name":"Vadstena kommun","osmType":"relation","osmId":935553},"geometry":{"type":"Polygon","coordinates":[[[14.5204269,58.3559613],[14.6704877,58.3493967],[14.6639321,58.3374401],[14.6903232,58.3285886],[14.6937383,58.3327525],[14.7009328,58.334207],[14.7083933,58.3349509],[14.714672,58.3310041],[14.7546418,58.3379643],[14.7704895,58.3474711],[14.818185,58.3468017],[14.8422128,58.3588136],[14.8801276,58.3596659],[14.9245461,58.3435105],[14.9308635,58.3488288],[14.947196,58.3542346],[14.9455597,58.3595659],[14.9482024,58.3672382],[14.9716434,58.3673615],[14.9667667,58.3719704],[14.9777433,58.3815507],[14.9691755,58.3901016],[14.97111,58.4042407],[14.985844,58.4036778],[14.9861273,58.3990154],[15.0063626,58.4015802],[15.0014541,58.4128596],[14.9970999,58.4123661],[14.9949503,58.418299],[15.0006282,58.4208703],[14.9973963,58.4246176],[14.9619543,58.4342088],[14.9735398,58.4412901],[14.9877795,58.4420488],[14.9989378,58.4492928],[14.9936464,58.4538994],[14.9823742,58.4545094],[15.0036197,58.4638816],[15.0162562,58.4739268],[15.0076703,58.4803583],[14.9829272,58.4757116],[14.9767018,58.4771027],[14.9749647,58.4810183],[14.9886935,58.4849717],[14.9906331,58.4897768],[15.002875,58.494293],[14.9969629,58.496513],[14.9876698,58.4940988],[14.9855189,58.5025383],[14.9767337,58.5018906],[14.9812138,58.5058693],[14.9707961,58.517869],[14.9389656,58.5358656],[14.7527205,58.4932439],[14.6734621,58.5100655],[14.5204269,58.3559613]]]}},{"type":"Feature","properties":{"name":"Ödeshögs kommun","osmType":"relation","osmId":935434},"geometry":{"type":"MultiPolygon","coordinates":[[[[14.4177376,58.1910562],[14.4682736,58.1310943],[14.5435432,58.1112319],[14.5496436,58.1051368],[14.5709616,58.107457],[14.5867411,58.1041812],[14.5933756,58.0985406],[14.6519494,58.0958201],[14.6575767,58.097366],[14.6578218,58.1008687],[14.7228023,58.0979375],[14.7592294,58.1038234],[14.7658308,58.094965],[14.7656447,58.0861423],[14.8019972,58.0864233],[14.8087831,58.0826874],[14.8441276,58.0853026],[14.8500855,58.0884885],[14.858296,58.0856106],[14.8834942,58.0910818],[14.8858215,58.0851116],[14.8977771,58.0853324],[14.8865413,58.0988612],[14.8968156,58.1066549],[14.8972933,58.1117739],[14.9148909,58.1112038],[14.9119747,58.1168325],[14.9167831,58.1202398],[14.9098641,58.1243221],[14.899936,58.1203312],[14.89232,58.123874],[14.8893713,58.1289459],[14.8937006,58.1331545],[14.8921258,58.1377583],[14.9007678,58.1386159],[14.8943158,58.1416008],[14.9076326,58.139541],[14.9172555,58.1429916],[14.923922,58.1417307],[14.9272955,58.1368648],[14.9327914,58.1401422],[14.918957,58.1448745],[14.915071,58.1569565],[14.9119444,58.1570385],[14.9150341,58.1601298],[14.9147018,58.1691841],[14.8991779,58.1662521],[14.8977943,58.1626986],[14.890543,58.162388],[14.8859283,58.1663385],[14.8783492,58.1648222],[14.8790956,58.1824507],[14.8689302,58.1852421],[14.8716141,58.1915925],[14.8642924,58.2105005],[14.8661028,58.2161051],[14.8730586,58.221045],[14.8734731,58.225839],[14.8834992,58.2289053],[14.8715152,58.2339445],[14.8854965,58.243062],[14.8873837,58.2539195],[14.8844015,58.2568049],[14.8900246,58.2634579],[14.8700065,58.260109],[14.8569179,58.2703663],[14.8571857,58.275897],[14.8470003,58.2769304],[14.8601984,58.2779896],[14.8629861,58.272693],[14.8633376,58.2745487],[14.8629005,58.2748734],[14.8614111,58.2773313],[14.8612044,58.2781405],[14.8633871,58.2745562],[14.8630428,58.2727046],[14.8636574,58.2728663],[14.8699016,58.2813317],[14.8810904,58.2875755],[14.8728524,58.2881846],[14.8646792,58.2820405],[14.8634433,58.2884456],[14.8589517,58.2884929],[14.8525597,58.3105338],[14.8591156,58.3143865],[14.8527909,58.3158169],[14.8680137,58.3168399],[14.8722911,58.3238183],[14.8580046,58.3251585],[14.8526602,58.336207],[14.8345152,58.3549612],[14.818185,58.3468017],[14.7704895,58.3474711],[14.7546418,58.3379643],[14.714672,58.3310041],[14.7083933,58.3349509],[14.7009328,58.334207],[14.6937383,58.3327525],[14.6903232,58.3285886],[14.6639321,58.3374401],[14.6704877,58.3493967],[14.5204269,58.3559613],[14.4177376,58.1910562]],[[14.8401623,58.2867923],[14.840997,58.2882956],[14.8415666,58.2872563],[14.8401623,58.2867923]],[[14.848281,58.2745468],[14.8517407,58.2744913],[14.8522173,58.2740059],[14.8506364,58.2734084],[14.848281,58.2745468]],[[14.8519921,58.2794488],[14.8574195,58.2792196],[14.8573591,58.2782655],[14.8519921,58.2794488]]],[[[14.8610698,58.2728478],[14.8620572,58.2721737],[14.8625543,58.2726136],[14.8610698,58.2728478]]],[[[14.8626152,58.2726148],[14.8613519,58.2700611],[14.8636096,58.2727972],[14.8626152,58.2726148]]],[[[14.9182319,58.1407783],[14.9179219,58.1397735],[14.9188949,58.140518],[14.9182319,58.1407783]]]]}}]}
