{
  "type": "FeatureCollection",
  "features": [
    {
      "type": "Feature",
      "properties": {
        "urval": "10 km från Simrishamn kommun",
        "buffert_km": 10
      },
      "geometry": {
        "type": "Polygon",
        "coordinates": [
          [
            [
              13.901615404370931,
              55.65727206345833
            ],
            [
              13.90162660624688,
              55.65674013927849
            ],
            [
              13.901756747604432,
              55.654650794209
            ],
            [
              13.901972920423361,
              55.652563719950564
            ],
            [
              13.902007422482075,
              55.652286054368766
            ],
            [
              13.902314935172976,
              55.65016959883401
            ],
            [
              13.902710889100339,
              55.64805782878894
            ],
            [
              13.903195049373648,
              55.64595192083785
            ],
            [
              13.90376713208351,
              55.64385304812967
            ],
            [
              13.904426804490987,
              55.641762379706286
            ],
            [
              13.905173685243675,
              55.63968107985341
            ],
            [
              13.906007344618391,
              55.63761030745469
            ],
            [
              13.906927304790237,
              55.635551215349096
            ],
            [
              13.907619631641882,
              55.63414263341418
            ],
            [
              13.907652116786968,
              55.63335322588969
            ],
            [
              13.907840759343017,
              55.63113342139794
            ],
            [
              13.908126481080593,
              55.628916925316844
            ],
            [
              13.908509091161562,
              55.626705090494234
            ],
            [
              13.908988339724957,
              55.624499266704404
            ],
            [
              13.909563918079048,
              55.62230079982618
            ],
            [
              13.910235458928888,
              55.62011103102387
            ],
            [
              13.911002536639069,
              55.61793129593168
            ],
            [
              13.911864667531441,
              55.61576292384198
            ],
            [
              13.912821310217547,
              55.61360723689802
            ],
            [
              13.913871865965435,
              55.61146554929144
            ],
            [
              13.915015679100573,
              55.60933916646527
            ],
            [
              13.916252037440533,
              55.607229384322615
            ],
            [
              13.917580172763069,
              55.60513748844172
            ],
            [
              13.918999261307272,
              55.60306475329781
            ],
            [
              13.920508424307352,
              55.60101244149191
            ],
            [
              13.922106728558724,
              55.5989818029879
            ],
            [
              13.923793187015924,
              55.59697407435686
            ],
            [
              13.925566759421937,
              55.59499047803083
            ],
            [
              13.927426352968524,
              55.59303222156491
            ],
            [
              13.929370822987018,
              55.59110049690914
            ],
            [
              13.931398973669193,
              55.5891964796901
            ],
            [
              13.933509558817637,
              55.587321328502746
            ],
            [
              13.935701282625173,
              55.58547618421301
            ],
            [
              13.937972800482807,
              55.58366216927138
            ],
            [
              13.940322719815631,
              55.581880387037955
            ],
            [
              13.942749600946193,
              55.58013192111944
            ],
            [
              13.945251957984718,
              55.57841783471826
            ],
            [
              13.94782825974567,
              55.576739169994255
            ],
            [
              13.950476930690026,
              55.57509694743953
            ],
            [
              13.953196351892688,
              55.57349216526634
            ],
            [
              13.955984862034454,
              55.5719257988089
            ],
            [
              13.958840758417887,
              55.57039879993908
            ],
            [
              13.9614339970148,
              55.569079170312015
            ],
            [
              13.96270210612271,
              55.56818132283315
            ],
            [
              13.965235227511396,
              55.56647603139409
            ],
            [
              13.967842028319899,
              55.56480667430716
            ],
            [
              13.97052090799484,
              55.56317427060967
            ],
            [
              13.973270222597465,
              55.56157981665638
            ],
            [
              13.973904995171463,
              55.56122944755937
            ],
            [
              13.971252560701322,
              55.55968126854383
            ],
            [
              13.96861647907517,
              55.55806520747258
            ],
            [
              13.966051256854975,
              55.556413128593796
            ],
            [
              13.963558425260349,
              55.554726023889955
            ],
            [
              13.961139471468126,
              55.553004906244695
            ],
            [
              13.958795837730586,
              55.551250808827
            ],
            [
              13.956528920522347,
              55.54946478446286
            ],
            [
              13.954340069716471,
              55.547647904995756
            ],
            [
              13.952230587790181,
              55.545801260635535
            ],
            [
              13.950201729060694,
              55.5439259592969
            ],
            [
              13.948254698951539,
              55.54202312592711
            ],
            [
              13.946390653289804,
              55.540093901824214
            ],
            [
              13.94461069763465,
              55.53813944394521
            ],
            [
              13.94291588663747,
              55.53616092420572
            ],
            [
              13.941307223434018,
              55.53415952877053
            ],
            [
              13.939785659068797,
              55.53213645733621
            ],
            [
              13.939284236517512,
              55.531421710717005
            ],
            [
              13.937402266836996,
              55.529700891712196
            ],
            [
              13.935415702984859,
              55.52777953680289
            ],
            [
              13.933513962518512,
              55.52583090990928
            ],
            [
              13.931698201905231,
              55.52385620903025
            ],
            [
              13.929969524246845,
              55.52185664801259
            ],
            [
              13.928328978627489,
              55.519833455797695
            ],
            [
              13.926777559496045,
              55.517787875659515
            ],
            [
              13.925316206083611,
              55.515721164434126
            ],
            [
              13.923945801856275,
              55.51363459174125
            ],
            [
              13.922667174003466,
              55.51152943919837
            ],
            [
              13.921481092962113,
              55.50940699962813
            ],
            [
              13.920388271976833,
              55.50726857625902
            ],
            [
              13.919389366696333,
              55.50511548192027
            ],
            [
              13.918484974806189,
              55.502949038231435
            ],
            [
              13.917675635698146,
              55.500770574786976
            ],
            [
              13.916961830176044,
              55.49858142833646
            ],
            [
              13.91634398019848,
              55.49638294196087
            ],
            [
              13.915822448658227,
              55.49417646424574
            ],
            [
              13.915397539198523,
              55.491963348451236
            ],
            [
              13.915069496066158,
              55.48974495168001
            ],
            [
              13.914838504001445,
              55.487522634043344
            ],
            [
              13.914704688164965,
              55.485297757825776
            ],
            [
              13.914668114101087,
              55.48307168664926
            ],
            [
              13.91472878773814,
              55.480845784636784
            ],
            [
              13.914886655425208,
              55.47862141557646
            ],
            [
              13.915141604005335,
              55.47639994208626
            ],
            [
              13.915493460925074,
              55.474182724780114
            ],
            [
              13.915941994380173,
              55.471971121435686
            ],
            [
              13.916486913497229,
              55.46976648616464
            ],
            [
              13.916811469449554,
              55.46865438332274
            ],
            [
              13.916993546810467,
              55.46783219266155
            ],
            [
              13.917548275690208,
              55.46573028110111
            ],
            [
              13.918190402611632,
              55.4636363845185
            ],
            [
              13.91891955548241,
              55.46155167095972
            ],
            [
              13.919735313854135,
              55.45947730316337
            ],
            [
              13.920637209186554,
              55.45741443791498
            ],
            [
              13.92162472513796,
              55.45536422540469
            ],
            [
              13.92269729788164,
              55.45332780858936
            ],
            [
              13.923854316448056,
              55.451306322558686
            ],
            [
              13.925095123092534,
              55.44930089390651
            ],
            [
              13.925446358997089,
              55.44875395091642
            ],
            [
              13.926915175216617,
              55.44655628760516
            ],
            [
              13.928484575223354,
              55.444381124273086
            ],
            [
              13.92930820405811,
              55.44331951283388
            ],
            [
              13.929433240667379,
              55.44310888852951
            ],
            [
              13.930780877484997,
              55.4410121812496
            ],
            [
              13.932219669698078,
              55.43893507164885
            ],
            [
              13.933748719179635,
              55.43687883564049
            ],
            [
              13.935367072797582,
              55.43484473611762
            ],
            [
              13.937073723029732,
              55.43283402218385
            ],
            [
              13.938867608610792,
              55.4308479283927
            ],
            [
              13.940747615210906,
              55.42888767399665
            ],
            [
              13.942712576145228,
              55.42695446220544
            ],
            [
              13.944761273114086,
              55.42504947945499
            ],
            [
              13.946892436973197,
              55.423173894686805
            ],
            [
              13.949104748533403,
              55.421328858638304
            ],
            [
              13.951396839389416,
              55.41951550314477
            ],
            [
              13.953767292777021,
              55.41773494045311
            ],
            [
              13.956214644458164,
              55.415988262547735
            ],
            [
              13.958737383633352,
              55.41427654048935
            ],
            [
              13.961333953880777,
              55.412600823766454
            ],
            [
              13.964002754121582,
              55.41096213966046
            ],
            [
              13.966742139610647,
              55.40936149262449
            ],
            [
              13.969550422952265,
              55.407799863676246
            ],
            [
              13.972425875140095,
              55.4062782098054
            ],
            [
              13.975366726620747,
              55.40479746339576
            ],
            [
              13.978371168380333,
              55.40335853166256
            ],
            [
              13.98143735305335,
              55.40196229610511
            ],
            [
              13.982635341459348,
              55.4014439295557
            ],
            [
              13.98273611750816,
              55.40139295100293
            ],
            [
              13.985708509606857,
              55.399962149395634
            ],
            [
              13.98874177965376,
              55.39857323051651
            ],
            [
              13.991834094882291,
              55.397227030695184
            ],
            [
              13.994983587548857,
              55.39592436045468
            ],
            [
              13.99818835605318,
              55.3946660040314
            ],
            [
              14.001446466077326,
              55.39345271891077
            ],
            [
              14.004755951742752,
              55.39228523537893
            ],
            [
              14.008114816784731,
              55.39116425609079
            ],
            [
              14.011521035743437,
              55.39009045565443
            ],
            [
              14.011708227526302,
              55.39003481615098
            ],
            [
              14.01251980360208,
              55.38927839735855
            ],
            [
              14.014650209167776,
              55.3873993503121
            ],
            [
              14.016861957894426,
              55.385550915287446
            ],
            [
              14.019153677696295,
              55.383734229538504
            ],
            [
              14.021523947868788,
              55.381950410630544
            ],
            [
              14.023971299978616,
              55.3802005557608
            ],
            [
              14.02649421878155,
              55.378485741092064
            ],
            [
              14.029091143167115,
              55.3768070210992
            ],
            [
              14.031760467129613,
              55.375165427929474
            ],
            [
              14.034500540764926,
              55.37356197077634
            ],
            [
              14.037309671292379,
              55.371997635267846
            ],
            [
              14.040186124101112,
              55.370473382869385
            ],
            [
              14.04312812382027,
              55.368990150301414
            ],
            [
              14.046133855412346,
              55.367548848972476
            ],
            [
              14.049201465289046,
              55.36615036442775
            ],
            [
              14.052329062448973,
              55.36479555581353
            ],
            [
              14.054344017578746,
              55.363944917823545
            ],
            [
              14.055656493491384,
              55.363211688566366
            ],
            [
              14.058480611425813,
              55.36170919384824
            ],
            [
              14.061368294137196,
              55.36024632143858
            ],
            [
              14.06431781746894,
              55.35882394126338
            ],
            [
              14.067327421061872,
              55.35744289907704
            ],
            [
              14.070395309400078,
              55.35610401596736
            ],
            [
              14.073519652875929,
              55.35480808787522
            ],
            [
              14.074717628890063,
              55.35432378867871
            ],
            [
              14.075066124613956,
              55.35411983657681
            ],
            [
              14.07790648828859,
              55.35253893352258
            ],
            [
              14.078081963990016,
              55.35244368538838
            ],
            [
              14.078240872660084,
              55.35229529752004
            ],
            [
              14.080368550749675,
              55.350415224603395
            ],
            [
              14.082577564180804,
              55.34856576260621
            ],
            [
              14.084866541775055,
              55.34674805006883
            ],
            [
              14.08723406371028,
              55.34496320583143
            ],
            [
              14.089678662410785,
              55.34321232835344
            ],
            [
              14.09219882346506,
              55.341496495046016
            ],
            [
              14.094792986570532,
              55.339816761617435
            ],
            [
              14.097459546504682,
              55.33817416143215
            ],
            [
              14.10019685412193,
              55.33656970488368
            ],
            [
              14.103003217375669,
              55.33500437878173
            ],
            [
              14.105876902364802,
              55.333479145753984
            ],
            [
              14.108816134404128,
              55.331994943662686
            ],
            [
              14.111819099117932,
              55.33055268503675
            ],
            [
              14.114883943556114,
              55.32915325651918
            ],
            [
              14.11800877733215,
              55.327797518330655
            ],
            [
              14.121894000192556,
              55.32615468925871
            ],
            [
              14.124955252829874,
              55.32489214060174
            ],
            [
              14.128068515163577,
              55.323671528746516
            ],
            [
              14.131232011289908,
              55.32249354812168
            ],
            [
              14.13444393721409,
              55.32135886884157
            ],
            [
              14.13770246186884,
              55.320268136331684
            ],
            [
              14.141005728146968,
              55.31922197096791
            ],
            [
              14.144351853947464,
              55.31822096772985
            ],
            [
              14.147738933234521,
              55.317265695868535
            ],
            [
              14.217336666719785,
              55.29819289241534
            ],
            [
              14.289381126636371,
              55.27838509188936
            ],
            [
              14.314581640301899,
              55.271392341755515
            ],
            [
              14.318114754831207,
              55.27044198866588
            ],
            [
              14.321687908574646,
              55.26954163760616
            ],
            [
              14.325298923552744,
              55.26869183670936
            ],
            [
              14.328945599170643,
              55.26789310329944
            ],
            [
              14.332625713538093,
              55.26714592358237
            ],
            [
              14.336337024801162,
              55.26645075235582
            ],
            [
              14.340077272484914,
              55.265808012737594
            ],
            [
              14.343844178846329,
              55.265218095913184
            ],
            [
              14.347635450236691,
              55.26468136090226
            ],
            [
              14.351448778472683,
              55.264198134344525
            ],
            [
              14.355281842215474,
              55.2637687103048
            ],
            [
              14.35913230835697,
              55.26339335009779
            ],
            [
              14.362997833412537,
              55.263072282132086
            ],
            [
              14.36687606491937,
              55.26280570177403
            ],
            [
              14.370764642839802,
              55.262593771231266
            ],
            [
              14.374661200968701,
              55.262436619456075
            ],
            [
              14.378563368344285,
              55.26233434206836
            ],
            [
              14.382468770661506,
              55.26228700129881
            ],
            [
              14.386375031687257,
              55.2622946259517
            ],
            [
              14.390279774676646,
              55.26235721138779
            ],
            [
              14.394180623789545,
              55.26247471952707
            ],
            [
              14.39807520550663,
              55.26264707887147
            ],
            [
              14.401961150044178,
              55.26287418454737
            ],
            [
              14.405836092766808,
              55.2631558983683
            ],
            [
              14.409697675597412,
              55.263492048917165
            ],
            [
              14.41354354842353,
              55.2638824316485
            ],
            [
              14.417371370499321,
              55.264326809010434
            ],
            [
              14.421178811842477,
              55.26482491058626
            ],
            [
              14.424963554625212,
              55.26537643325585
            ],
            [
              14.428723294558596,
              55.265981041376264
            ],
            [
              14.432455742269521,
              55.26663836698211
            ],
            [
              14.436158624669435,
              55.267348010005016
            ],
            [
              14.439829686314193,
              55.26810953851247
            ],
            [
              14.44346669075419,
              55.268922488965494
            ],
            [
              14.447067421874108,
              55.26978636649549
            ],
            [
              14.450629685221408,
              55.27070064519972
            ],
            [
              14.454151309322969,
              55.271664768455416
            ],
            [
              14.457630146989013,
              55.2726781492524
            ],
            [
              14.461064076603655,
              55.2737401705438
            ],
            [
              14.464451003401322,
              55.27485018561508
            ],
            [
              14.467788860728293,
              55.276007518470635
            ],
            [
              14.471075611288699,
              55.2772114642383
            ],
            [
              14.474309248374212,
              55.27846128959105
            ],
            [
              14.477487797076734,
              55.27975623318608
            ],
            [
              14.480609315483411,
              55.28109550612065
            ],
            [
              14.48367189585322,
              55.2824782924048
            ],
            [
              14.486673665774497,
              55.28390374945027
            ],
            [
              14.48961278930269,
              55.28537100857577
            ],
            [
              14.492487468077686,
              55.286879175528036
            ],
            [
              14.495295942420013,
              55.28842733101844
            ],
            [
              14.498036492405305,
              55.29001453127487
            ],
            [
              14.500707438916344,
              55.29163980860865
            ],
            [
              14.503307144672071,
              55.293302171995975
            ],
            [
              14.505834015232892,
              55.2950006076738
            ],
            [
              14.508286499981702,
              55.29673407974958
            ],
            [
              14.51066309308002,
              55.29850153082474
            ],
            [
              14.51296233439857,
              55.300301882631345
            ],
            [
              14.589207527306758,
              55.36146182471512
            ],
            [
              14.719162303236148,
              55.465162577338475
            ],
            [
              14.771276990964745,
              55.50655660867424
            ],
            [
              14.831220397617528,
              55.55403403841476
            ],
            [
              14.833431191953661,
              55.555828016331745
            ],
            [
              14.835564413864109,
              55.55765182987697
            ],
            [
              14.837618795950162,
              55.55950440477186
            ],
            [
              14.839593116733763,
              55.56138464964413
            ],
            [
              14.841486201395478,
              55.5632914566635
            ],
            [
              14.843296922486456,
              55.5652237021877
            ],
            [
              14.845024200613988,
              55.567180247417745
            ],
            [
              14.84666700510013,
              55.56915993906265
            ],
            [
              14.848224354613036,
              55.57116161001289
            ],
            [
              14.849695317770491,
              55.573184080022344
            ],
            [
              14.851079013715337,
              55.57522615639849
            ],
            [
              14.85237461266229,
              55.57728663470004
            ],
            [
              14.853581336415857,
              55.57936429944212
            ],
            [
              14.854698458858904,
              55.58145792480823
            ],
            [
              14.855725306411568,
              55.5835662753688
            ],
            [
              14.856661258460193,
              55.58568810680573
            ],
            [
              14.857505747755875,
              55.587822166642724
            ],
            [
              14.85825826078243,
              55.589967194980815
            ],
            [
              14.858918338093371,
              55.592121925238764
            ],
            [
              14.85948557461772,
              55.594285084897834
            ],
            [
              14.859959619934315,
              55.59645539625068
            ],
            [
              14.860340178514424,
              55.59863157715354
            ],
            [
              14.860627009932397,
              55.60081234178175
            ],
            [
              14.860819929044194,
              55.60299640138793
            ],
            [
              14.860918806133528,
              55.60518246506223
            ],
            [
              14.860923567025548,
              55.607369240494485
            ],
            [
              14.86083419316781,
              55.609555434737764
            ],
            [
              14.860650721678459,
              55.61173975497264
            ],
            [
              14.860373245361494,
              55.61392090927205
            ],
            [
              14.860001912689002,
              55.61609760736599
            ],
            [
              14.859536927750316,
              55.61826856140591
            ],
            [
              14.858978550168,
              55.62043248672802
            ],
            [
              14.858327094980648,
              55.622588102615396
            ],
            [
              14.857582932492491,
              55.62473413305797
            ],
            [
              14.856746488089776,
              55.62686930751055
            ],
            [
              14.855818242023986,
              55.6289923616479
            ],
            [
              14.852997116516997,
              55.635122058821864
            ],
            [
              14.851501885163787,
              55.63815145071427
            ],
            [
              14.847981239427906,
              55.644828721523304
            ],
            [
              14.846310482940163,
              55.64780650522231
            ],
            [
              14.842379918010737,
              55.654409420960334
            ],
            [
              14.840517049013883,
              55.6573661054879
            ],
            [
              14.836178014961108,
              55.66388824643943
            ],
            [
              14.83413909999485,
              55.66679738210949
            ],
            [
              14.829399258618404,
              55.67322897990753
            ],
            [
              14.827169823572364,
              55.676110224548175
            ],
            [
              14.822032102086958,
              55.68244395445322
            ],
            [
              14.81963476606877,
              55.68526761641544
            ],
            [
              14.814106858411979,
              55.69149613750161
            ],
            [
              14.811537901391066,
              55.69426839397589
            ],
            [
              14.80562633537802,
              55.7003845453159
            ],
            [
              14.803510818263785,
              55.702504022686924
            ],
            [
              14.801870596189277,
              55.704096360123756
            ],
            [
              14.800105636512619,
              55.70580966723443
            ],
            [
              14.798714428305484,
              55.707133196750675
            ],
            [
              14.793995566286844,
              55.71268907690168
            ],
            [
              14.791752747053987,
              55.71522567920195
            ],
            [
              14.787405350052833,
              55.719953359235674
            ],
            [
              14.784745913756511,
              55.72288436559345
            ],
            [
              14.782787244894278,
              55.724974492472235
            ],
            [
              14.778844210360239,
              55.729050739303126
            ],
            [
              14.778532200440372,
              55.72983900018661
            ],
            [
              14.775630587769273,
              55.73661141868593
            ],
            [
              14.774257695967771,
              55.739590412498565
            ],
            [
              14.771075947508205,
              55.746036827701815
            ],
            [
              14.770484099291124,
              55.74720505868786
            ],
            [
              14.769551146852958,
              55.74900036972133
            ],
            [
              14.76852735873641,
              55.7508927839038
            ],
            [
              14.764791388395366,
              55.757533911553374
            ],
            [
              14.763024168238264,
              55.76049484109216
            ],
            [
              14.758878748529606,
              55.76705863442496
            ],
            [
              14.757224849907534,
              55.76955859917632
            ],
            [
              14.754110802099781,
              55.77405941044213
            ],
            [
              14.750738961647771,
              55.778920977046624
            ],
            [
              14.750211361840018,
              55.77967158393804
            ],
            [
              14.746811640631304,
              55.78444480444299
            ],
            [
              14.745252747939935,
              55.786555008092
            ],
            [
              14.742122638615765,
              55.79064394420702
            ],
            [
              14.740513035268906,
              55.7926766277162
            ],
            [
              14.738814304952795,
              55.79468627896957
            ],
            [
              14.737027476877445,
              55.79667166415929
            ],
            [
              14.735153634834186,
              55.798631564187694
            ],
            [
              14.733193916557015,
              55.80056477542289
            ],
            [
              14.731149513049262,
              55.802470110445014
            ],
            [
              14.729021667875925,
              55.80434639878318
            ],
            [
              14.726811676422061,
              55.80619248764203
            ],
            [
              14.724520885117641,
              55.80800724261785
            ],
            [
              14.722150690629295,
              55.80978954840376
            ],
            [
              14.719702539019364,
              55.811538309483254
            ],
            [
              14.717177924872827,
              55.81325245081192
            ],
            [
              14.714578390392502,
              55.81493091848681
            ],
            [
              14.711905524463113,
              55.81657268040279
            ],
            [
              14.709160961684775,
              55.81817672689596
            ],
            [
              14.706346381376424,
              55.81974207137315
            ],
            [
              14.703463506549841,
              55.82126775092749
            ],
            [
              14.700514102854871,
              55.82275282693941
            ],
            [
              14.69749997749648,
              55.82419638566273
            ],
            [
              14.69442297812432,
              55.8255975387957
            ],
            [
              14.69128499169549,
              55.82695542403602
            ],
            [
              14.688087943311192,
              55.8282692056203
            ],
            [
              14.684833795028064,
              55.82953807484666
            ],
            [
              14.681524544644855,
              55.83076125058104
            ],
            [
              14.67816222446529,
              55.83193797974614
            ],
            [
              14.674748900037892,
              55.83306753779319
            ],
            [
              14.671286668873549,
              55.83414922915588
            ],
            [
              14.667777659141697,
              55.83518238768633
            ],
            [
              14.664224028345917,
              55.83616637707279
            ],
            [
              14.660627961979872,
              55.83710059123875
            ],
            [
              14.656991672164398,
              55.83798445472318
            ],
            [
              14.653317396266688,
              55.83881742304161
            ],
            [
              14.64960739550246,
              55.83959898302809
            ],
            [
              14.645863953522067,
              55.84032865315731
            ],
            [
              14.64208937498142,
              55.841005983847076
            ],
            [
              14.638285984098765,
              55.84163055774075
            ],
            [
              14.634456123198206,
              55.84220198996954
            ],
            [
              14.63060215124098,
              55.84271992839433
            ],
            [
              14.626726442345475,
              55.84318405382709
            ],
            [
              14.622831384296958,
              55.843594080231526
            ],
            [
              14.618919377048064,
              55.843949754903
            ],
            [
              14.614992831211,
              55.84425085862745
            ],
            [
              14.611054166542553,
              55.84449720581919
            ],
            [
              14.607105810422839,
              55.84468864463775
            ],
            [
              14.603150196328924,
              55.8448250570834
            ],
            [
              14.599810968139593,
              55.844916850287184
            ],
            [
              14.226250832648185,
              55.85460893853554
            ],
            [
              14.22435159933654,
              55.8548336590115
            ],
            [
              14.22053792669571,
              55.855230944110986
            ],
            [
              14.216708167563791,
              55.855576177615305
            ],
            [
              14.212864581400044,
              55.855869155812954
            ],
            [
              14.209009435989877,
              55.85610970582306
            ],
            [
              14.205145006079825,
              55.85629768569936
            ],
            [
              14.201273572008022,
              55.856432984515656
            ],
            [
              14.197397418331027,
              55.85651552243276
            ],
            [
              14.193518832447902,
              55.856545250746485
            ],
            [
              14.193495388394183,
              55.856545270779804
            ],
            [
              14.189641380048336,
              55.85652248575426
            ],
            [
              14.185789475672328,
              55.85644755818585
            ],
            [
              14.181941919473683,
              55.856320531733196
            ],
            [
              14.180791430549544,
              55.85626691298188
            ],
            [
              14.177854774908678,
              55.85636496721679
            ],
            [
              14.173953256895715,
              55.85644165276632
            ],
            [
              14.170049561261855,
              55.8564648426054
            ],
            [
              14.16614602145046,
              55.85643452287652
            ],
            [
              14.162244970809452,
              55.85635071170765
            ],
            [
              14.158348741167643,
              55.856213459201335
            ],
            [
              14.157793742370421,
              55.85619008516527
            ],
            [
              14.153834225187026,
              55.855995507203836
            ],
            [
              14.149884573548745,
              55.8557457379147
            ],
            [
              14.145947234445167,
              55.85544093205973
            ],
            [
              14.142024647079799,
              55.85508127849739
            ],
            [
              14.138119241328539,
              55.85466700006337
            ],
            [
              14.134233436204507,
              55.854198353429666
            ],
            [
              14.130369638330302,
              55.85367562894224
            ],
            [
              14.126530240418683,
              55.85309915043759
            ],
            [
              14.122717619762767,
              55.852469275037954
            ],
            [
              14.118934136736703,
              55.85178639292575
            ],
            [
              14.115182133307867,
              55.851050927096935
            ],
            [
              14.111463931561591,
              55.85026333309391
            ],
            [
              14.107781832239397,
              55.84942409871772
            ],
            [
              14.106725106759699,
              55.84916589953297
            ],
            [
              14.106651254108321,
              55.84915673234692
            ],
            [
              14.102823311549782,
              55.84862571413695
            ],
            [
              14.099019921560238,
              55.84804185009483
            ],
            [
              14.095243402649022,
              55.84740549632186
            ],
            [
              14.09277122603352,
              55.84695132813671
            ],
            [
              14.091809697486067,
              55.846908750431695
            ],
            [
              14.087933989821277,
              55.846683683688795
            ],
            [
              14.08406923225939,
              55.84640564170423
            ],
            [
              14.080217726818951,
              55.84607479011658
            ],
            [
              14.07638176746168,
              55.845691326019036
            ],
            [
              14.072563638698858,
              55.845255477839615
            ],
            [
              14.068765614203933,
              55.84476750520232
            ],
            [
              14.06498995543221,
              55.844227698769274
            ],
            [
              14.061238910248562,
              55.84363638006408
            ],
            [
              14.057514711564052,
              55.842993901276486
            ],
            [
              14.053819575982315,
              55.842300645048375
            ],
            [
              14.050155702456658,
              55.84155702424141
            ],
            [
              14.046525270958654,
              55.840763481686245
            ],
            [
              14.045589345675427,
              55.84055148825357
            ],
            [
              14.041918714283181,
              55.839690057616416
            ],
            [
              14.0382874884542,
              55.838777593262954
            ],
            [
              14.034697919980594,
              55.83781466175326
            ],
            [
              14.031152234303534,
              55.8368018609393
            ],
            [
              14.02765262911372,
              55.83573981958684
            ],
            [
              14.024201272970659,
              55.83462919697774
            ],
            [
              14.02080030394167,
              55.833470682493314
            ],
            [
              14.017451828261516,
              55.83226499517875
            ],
            [
              14.01728361998497,
              55.83220105833548
            ],
            [
              14.0166005204817,
              55.831960636856195
            ],
            [
              14.013338717966473,
              55.830749236337105
            ],
            [
              14.01013076536956,
              55.829493378356425
            ],
            [
              14.006978581467571,
              55.828193816165985
            ],
            [
              14.003884051026208,
              55.82685132915366
            ],
            [
              14.00084902366482,
              55.82546672236832
            ],
            [
              13.997875312743743,
              55.824040826028885
            ],
            [
              13.994964694275152,
              55.822574495018806
            ],
            [
              13.99211890585805,
              55.82106860836525
            ],
            [
              13.98933964563807,
              55.819524068704084
            ],
            [
              13.986628571292696,
              55.81794180173074
            ],
            [
              13.98398729904253,
              55.81632275563716
            ],
            [
              13.981417402689202,
              55.8146679005355
            ],
            [
              13.97892041268044,
              55.81297822786871
            ],
            [
              13.977977801111061,
              55.81230766130945
            ],
            [
              13.975456745010343,
              55.8108077801255
            ],
            [
              13.972836845186274,
              55.80917040013328
            ],
            [
              13.970289287375257,
              55.8074974136342
            ],
            [
              13.967815596251937,
              55.80578982807794
            ],
            [
              13.96541725142374,
              55.804048671615
            ],
            [
              13.963095686552169,
              55.80227499246949
            ],
            [
              13.960852288503528,
              55.80046985830006
            ],
            [
              13.958688396529515,
              55.79863435554949
            ],
            [
              13.95660530147822,
              55.79676958878298
            ],
            [
              13.954604245035872,
              55.79487668001597
            ],
            [
              13.952686418999845,
              55.79295676803153
            ],
            [
              13.950852964583246,
              55.79101100768814
            ],
            [
              13.94910497175148,
              55.78904056921808
            ],
            [
              13.947443478591138,
              55.78704663751666
            ],
            [
              13.945869470711541,
              55.78503041142341
            ],
            [
              13.944383880679217,
              55.782993102994794
            ],
            [
              13.942987587485595,
              55.780935936769716
            ],
            [
              13.94168141604819,
              55.77886014902777
            ],
            [
              13.940466136745485,
              55.776766987040794
            ],
            [
              13.939342464985716,
              55.77465770831837
            ],
            [
              13.938311060809758,
              55.77253357984759
            ],
            [
              13.938123656396124,
              55.77210674651787
            ],
            [
              13.937038486601006,
              55.77041266032996
            ],
            [
              13.935806191611324,
              55.76833076467614
            ],
            [
              13.934664682858823,
              55.7662325652943
            ],
            [
              13.933614626579345,
              55.76411931381568
            ],
            [
              13.933092114909835,
              55.762959203846556
            ],
            [
              13.932563733469976,
              55.76187547017322
            ],
            [
              13.93162410703244,
              55.759745691470904
            ],
            [
              13.930777212766884,
              55.757603641159356
            ],
            [
              13.930023540360862,
              55.75545059653208
            ],
            [
              13.929363523686733,
              55.7532878412265
            ],
            [
              13.928797540578902,
              55.751116664455616
            ],
            [
              13.928325912645084,
              55.748938360236906
            ],
            [
              13.92794890511158,
              55.746754226618805
            ],
            [
              13.927666726702576,
              55.744565564905464
            ],
            [
              13.927479529553473,
              55.74237367887987
            ],
            [
              13.927387409158165,
              55.74017987402615
            ],
            [
              13.927390404350247,
              55.73798545675131
            ],
            [
              13.92748849731805,
              55.73579173360707
            ],
            [
              13.927681613653414,
              55.733600010511886
            ],
            [
              13.92794563682899,
              55.73159385476165
            ],
            [
              13.926061744263583,
              55.72957364282832
            ],
            [
              13.924260032377616,
              55.72751538785897
            ],
            [
              13.92255234898477,
              55.72543189255084
            ],
            [
              13.920939794002601,
              55.72332451735298
            ],
            [
              13.919423404718941,
              55.72119463808533
            ],
            [
              13.918004155149783,
              55.71904364503323
            ],
            [
              13.917347802727228,
              55.71800854433601
            ],
            [
              13.915801440657592,
              55.71544876223023
            ],
            [
              13.914392585785063,
              55.71286393392075
            ],
            [
              13.913675408667023,
              55.711473841587214
            ],
            [
              13.912606962777026,
              55.709301464739376
            ],
            [
              13.911635610569043,
              55.70711467520578
            ],
            [
              13.91076194702135,
              55.704914849251466
            ],
            [
              13.909986505348144,
              55.70270337111291
            ],
            [
              13.90942489689381,
              55.70085965077628
            ],
            [
              13.908806095832949,
              55.699013076404604
            ],
            [
              13.908156251765046,
              55.69676198268279
            ],
            [
              13.907607974625726,
              55.694502323252316
            ],
            [
              13.907161599728688,
              55.69223555274251
            ],
            [
              13.906817396633429,
              55.68996313010705
            ],
            [
              13.906575569017072,
              55.68768651768294
            ],
            [
              13.906436254588991,
              55.685407180247886
            ],
            [
              13.90641889399871,
              55.68432926256062
            ],
            [
              13.906312061521602,
              55.68410415014234
            ],
            [
              13.90538529960794,
              55.681937499156945
            ],
            [
              13.904554153784224,
              55.679758559962885
            ],
            [
              13.903819119249285,
              55.67756867276716
            ],
            [
              13.903180631854013,
              55.67536918428485
            ],
            [
              13.902639067872153,
              55.67316144690791
            ],
            [
              13.902194743808371,
              55.670946817870934
            ],
            [
              13.90184791624359,
              55.66872665841439
            ],
            [
              13.901598781717592,
              55.66650233294625
            ],
            [
              13.901447476648876,
              55.66427520820194
            ],
            [
              13.901394077291695,
              55.66204665240359
            ],
            [
              13.90143859973023,
              55.65981803441892
            ],
            [
              13.901580999909777,
              55.65759072292023
            ],
            [
              13.901615404370931,
              55.65727206345833
            ]
          ]
        ]
      }
    }
  ]
}
